{"type":"FeatureCollection","features":[{"type":"Feature","id":8070,"geometry":{"type":"LineString","coordinates":[[-110.01114089962336,45.004193000117283],[-110.0114043996639,45.004098100083858],[-110.01223849980222,45.00385379998373]]},"properties":{"RDMAINTAINER":"National Park Service","OBJECTID":8070,"RDNAME":"Northeast Entrance Road","RDALTNAME":null,"MAPLABEL":"Northeast Entrance Road","RDSTATUS":"Existing","RDCLASS":"Secondary","RDSURFACE":"Unknown","RDONEWAY":null,"RDLANES":null,"RTENUMBER":null,"SEASONAL":"Unknown","SEASDESC":null,"RDHICLEAR":"No","ISEXTANT":"True","PUBLICDISPLAY":"Public Map Display","DATAACCESS":"Unrestricted","ACCESSNOTES":null,"ORIGINATOR":null,"UNITCODE":"YELL","UNITNAME":"Yellowstone National Park","UNITTYPE":null,"GROUPCODE":null,"GROUPNAME":null,"REGIONCODE":"IMR","CREATEDATE":1455667200000,"EDITDATE":1629441068000,"LINETYPE":null,"MAPMETHOD":null,"MAPSOURCE":null,"SOURCEDATE":null,"XYACCURACY":"Unknown","ROUTEID":null,"GEOMETRYID":"{1C1F9436-67ED-4C23-B2AA-5BA0E97A19BB}","FEATUREID":"1436","FACLOCID":null,"FACASSETID":null,"IMLOCID":null,"OBSERVABLE":null,"OPENTOPUBLIC":null,"ALTLANGNAME":null,"ALTLANG":null,"NOTES":"road","Shape.STLength()":0.0011492088655952132}},{"type":"Feature","id":8073,"geometry":{"type":"LineString","coordinates":[[-110.53796450033558,44.388628899055],[-110.53757740008135,44.387638399987836],[-110.53647049987963,44.387846100107495]]},"properties":{"RDMAINTAINER":"National Park Service","OBJECTID":8073,"RDNAME":" ","RDALTNAME":null,"MAPLABEL":" ","RDSTATUS":"Existing","RDCLASS":"Private","RDSURFACE":"Unknown","RDONEWAY":null,"RDLANES":null,"RTENUMBER":null,"SEASONAL":"Unknown","SEASDESC":null,"RDHICLEAR":"No","ISEXTANT":"True","PUBLICDISPLAY":"Public Map Display","DATAACCESS":"Unrestricted","ACCESSNOTES":null,"ORIGINATOR":null,"UNITCODE":"YELL","UNITNAME":"Yellowstone National Park","UNITTYPE":null,"GROUPCODE":null,"GROUPNAME":null,"REGIONCODE":"IMR","CREATEDATE":1455667200000,"EDITDATE":1629441068000,"LINETYPE":null,"MAPMETHOD":null,"MAPSOURCE":null,"SOURCEDATE":null,"XYACCURACY":"Unknown","ROUTEID":null,"GEOMETRYID":"{D582C674-2D9A-4266-B323-FFD65DBEDB1F}","FEATUREID":"1023","FACLOCID":null,"FACASSETID":null,"IMLOCID":null,"OBSERVABLE":null,"OPENTOPUBLIC":null,"ALTLANGNAME":null,"ALTLANG":null,"NOTES":"road","Shape.STLength()":0.0021896720893389682}},{"type":"Feature","id":8074,"geometry":{"type":"LineString","coordinates":[[-110.03334240052025,45.00447740014296],[-110.03333869855838,45.004694600165351],[-110.03334399958923,45.004860400181791],[-110.03343309963874,45.005027800190746],[-110.03364029970392,45.005139300183394],[-110.03376690073927,45.00518250017636],[-110.03389499977332,45.005216499168291],[-110.03396479979114,45.005230900163447],[-110.03410749982544,45.005248400152361]]},"properties":{"RDMAINTAINER":"National Park Service","OBJECTID":8074,"RDNAME":" ","RDALTNAME":null,"MAPLABEL":" ","RDSTATUS":"Existing","RDCLASS":"Local","RDSURFACE":"Unknown","RDONEWAY":null,"RDLANES":null,"RTENUMBER":null,"SEASONAL":"Unknown","SEASDESC":null,"RDHICLEAR":"No","ISEXTANT":"True","PUBLICDISPLAY":"Public Map Display","DATAACCESS":"Unrestricted","ACCESSNOTES":null,"ORIGINATOR":null,"UNITCODE":"YELL","UNITNAME":"Yellowstone National Park","UNITTYPE":null,"GROUPCODE":null,"GROUPNAME":null,"REGIONCODE":"IMR","CREATEDATE":1461715200000,"EDITDATE":1629441068000,"LINETYPE":null,"MAPMETHOD":null,"MAPSOURCE":null,"SOURCEDATE":null,"XYACCURACY":"Unknown","ROUTEID":null,"GEOMETRYID":"{A49E4889-C975-4EE7-906C-7D8B9A4676DC}","FEATUREID":"1902","FACLOCID":null,"FACASSETID":null,"IMLOCID":null,"OBSERVABLE":null,"OPENTOPUBLIC":null,"ALTLANGNAME":null,"ALTLANG":null,"NOTES":"road","Shape.STLength()":0.0012893892890052355}},{"type":"Feature","id":8076,"geometry":{"type":"LineString","coordinates":[[-110.83024689980657,44.577343401156625],[-110.83042639987498,44.577514500157797],[-110.83069720100066,44.577900700172457],[-110.83088070006754,44.578058200171888],[-110.83089900008252,44.57812150017665],[-110.83091860009863,44.578189101181664],[-110.83093400011128,44.578242500185695],[-110.83095209912614,44.57830510019037],[-110.83096320013524,44.578343600193278],[-110.83101879916877,44.578466800200729]]},"properties":{"RDMAINTAINER":"National Park Service","OBJECTID":8076,"RDNAME":"Picnic Area","RDALTNAME":null,"MAPLABEL":"Picnic Area","RDSTATUS":"Existing","RDCLASS":"Local","RDSURFACE":"Unknown","RDONEWAY":null,"RDLANES":null,"RTENUMBER":null,"SEASONAL":"Unknown","SEASDESC":null,"RDHICLEAR":"No","ISEXTANT":"True","PUBLICDISPLAY":"Public Map Display","DATAACCESS":"Unrestricted","ACCESSNOTES":null,"ORIGINATOR":null,"UNITCODE":"YELL","UNITNAME":"Yellowstone National Park","UNITTYPE":null,"GROUPCODE":null,"GROUPNAME":null,"REGIONCODE":"IMR","CREATEDATE":1461628800000,"EDITDATE":1629441068000,"LINETYPE":null,"MAPMETHOD":null,"MAPSOURCE":null,"SOURCEDATE":null,"XYACCURACY":"Unknown","ROUTEID":null,"GEOMETRYID":"{2BC7BCB7-E7F7-420B-ADEB-F67C5F98894E}","FEATUREID":"1866","FACLOCID":null,"FACASSETID":null,"IMLOCID":null,"OBSERVABLE":null,"OPENTOPUBLIC":null,"ALTLANGNAME":null,"ALTLANG":null,"NOTES":"road","Shape.STLength()":0.0013937358793167237}},{"type":"Feature","id":8077,"geometry":{"type":"LineString","coordinates":[[-110.87430420133801,44.646173999129758],[-110.87449470041859,44.64640000013538],[-110.87398579934461,44.646596600200908],[-110.87371739929728,44.646653500230769],[-110.87341300023955,44.646694600262279],[-110.8732322011822,44.64658850026791]]},"properties":{"RDMAINTAINER":"National Park Service","OBJECTID":8077,"RDNAME":" ","RDALTNAME":null,"MAPLABEL":" ","RDSTATUS":"Existing","RDCLASS":"Private","RDSURFACE":"Unknown","RDONEWAY":null,"RDLANES":null,"RTENUMBER":null,"SEASONAL":"Unknown","SEASDESC":null,"RDHICLEAR":"No","ISEXTANT":"True","PUBLICDISPLAY":"Public Map Display","DATAACCESS":"Unrestricted","ACCESSNOTES":null,"ORIGINATOR":null,"UNITCODE":"YELL","UNITNAME":"Yellowstone National Park","UNITTYPE":null,"GROUPCODE":null,"GROUPNAME":null,"REGIONCODE":"IMR","CREATEDATE":1455667200000,"EDITDATE":1629441068000,"LINETYPE":null,"MAPMETHOD":null,"MAPSOURCE":null,"SOURCEDATE":null,"XYACCURACY":"Unknown","ROUTEID":null,"GEOMETRYID":"{31A56901-B97E-4D17-9872-4CAAF9BADF56}","FEATUREID":"1730","FACLOCID":null,"FACASSETID":null,"IMLOCID":null,"OBSERVABLE":null,"OPENTOPUBLIC":null,"ALTLANGNAME":null,"ALTLANG":null,"NOTES":"road","Shape.STLength()":0.0016322923013906872}},{"type":"Feature","id":8078,"geometry":{"type":"LineString","coordinates":[[-110.48066119982253,44.719525899921749],[-110.48094409986153,44.719401399883701],[-110.48204620001809,44.718943099738219]]},"properties":{"RDMAINTAINER":"National Park Service","OBJECTID":8078,"RDNAME":"South Rim Drive","RDALTNAME":null,"MAPLABEL":"South Rim Drive","RDSTATUS":"Existing","RDCLASS":"Local","RDSURFACE":"Unknown","RDONEWAY":null,"RDLANES":null,"RTENUMBER":null,"SEASONAL":"Unknown","SEASDESC":null,"RDHICLEAR":"No","ISEXTANT":"True","PUBLICDISPLAY":"Public Map Display","DATAACCESS":"Unrestricted","ACCESSNOTES":null,"ORIGINATOR":null,"UNITCODE":"YELL","UNITNAME":"Yellowstone National Park","UNITTYPE":null,"GROUPCODE":null,"GROUPNAME":null,"REGIONCODE":"IMR","CREATEDATE":1455667200000,"EDITDATE":1629441068000,"LINETYPE":null,"MAPMETHOD":null,"MAPSOURCE":null,"SOURCEDATE":null,"XYACCURACY":"Unknown","ROUTEID":null,"GEOMETRYID":"{52C9F2AB-CCD4-441F-B86B-48AB67DBCF5E}","FEATUREID":"1816","FACLOCID":null,"FACASSETID":null,"IMLOCID":null,"OBSERVABLE":null,"OPENTOPUBLIC":null,"ALTLANGNAME":null,"ALTLANG":null,"NOTES":"road","Shape.STLength()":0.001502676183118043}},{"type":"Feature","id":8084,"geometry":{"type":"LineString","coordinates":[[-110.39695450025746,44.551403500282831],[-110.39677459924384,44.551548001313698],[-110.39660220025942,44.551850400360003]]},"properties":{"RDMAINTAINER":"National Park Service","OBJECTID":8084,"RDNAME":"Monarch","RDALTNAME":null,"MAPLABEL":"Monarch","RDSTATUS":"Existing","RDCLASS":"Service","RDSURFACE":"Unknown","RDONEWAY":null,"RDLANES":null,"RTENUMBER":null,"SEASONAL":"Unknown","SEASDESC":null,"RDHICLEAR":"No","ISEXTANT":"True","PUBLICDISPLAY":"Public Map Display","DATAACCESS":"Unrestricted","ACCESSNOTES":null,"ORIGINATOR":null,"UNITCODE":"YELL","UNITNAME":"Yellowstone National Park","UNITTYPE":null,"GROUPCODE":null,"GROUPNAME":null,"REGIONCODE":"IMR","CREATEDATE":1473638400000,"EDITDATE":1629441068000,"LINETYPE":null,"MAPMETHOD":null,"MAPSOURCE":null,"SOURCEDATE":null,"XYACCURACY":"Unknown","ROUTEID":null,"GEOMETRYID":"{36577353-5040-47EC-834A-BCD3001E7E35}","FEATUREID":"73","FACLOCID":null,"FACASSETID":null,"IMLOCID":null,"OBSERVABLE":null,"OPENTOPUBLIC":null,"ALTLANGNAME":null,"ALTLANG":null,"NOTES":"road","Shape.STLength()":0.0005788384719257355}}]}