{"type": "FeatureCollection", "features": [{"type": "Feature", "geometry": {"type": "Polygon", "coordinates": [[[-110.51694897730818, 44.937770388050765], [-110.53654885156183, 44.90240152679904], [-110.56793547653372, 44.890659830249795], [-110.77716389285901, 44.921038599932096], [-110.7835551828028, 44.92298633249111], [-110.81372414843325, 45.04848169151101], [-110.77386056348003, 45.05237953009153], [-110.67370963685856, 45.026085912022346], [-110.59355277876749, 45.00405316675096], [-110.51694897730818, 44.937770388050765]]]}, "properties": {"level": 0.95, "what": "estimate", "area": 265927303.5, "source_file": "1995_2022-mcps/2022_Wolf Territory Shapefiles/mcp_outputs/8_mile_95_mcp_2022.shp", "year": 2022, "interpretation": "historical 95% minimum convex polygon; not population density or current distribution"}}, {"type": "Feature", "geometry": {"type": "Polygon", "coordinates": [[[-110.86576252557647, 44.77113793031504], [-110.86557703453492, 44.70396223398819], [-110.90829362138851, 44.63185886752733], [-111.08242313838399, 44.691228183557406], [-111.14897210685545, 45.06987978988762], [-111.12053836868864, 45.086269616216086], [-110.94618781126891, 45.01658324999244], [-110.86576252557647, 44.77113793031504]]]}, "properties": {"level": 0.95, "what": "estimate", "area": 734292748.5, "source_file": "1995_2022-mcps/2022_Wolf Territory Shapefiles/mcp_outputs/cougar_creek_95_mcp_2022.shp", "year": 2022, "interpretation": "historical 95% minimum convex polygon; not population density or current distribution"}}, {"type": "Feature", "geometry": {"type": "Polygon", "coordinates": [[[-110.64028296467016, 44.27182973385737], [-111.16140514144251, 44.15398040212917], [-111.22086168130016, 44.20267841352537], [-110.86523629857362, 44.56228036948483], [-110.64028296467016, 44.27182973385737]]]}, "properties": {"level": 0.95, "what": "estimate", "area": 959922530.0, "source_file": "1995_2022-mcps/2022_Wolf Territory Shapefiles/mcp_outputs/firehole_river_95_mcp_2022.shp", "year": 2022, "interpretation": "historical 95% minimum convex polygon; not population density or current distribution"}}, {"type": "Feature", "geometry": {"type": "Polygon", "coordinates": [[[-110.13712301088003, 44.88400431712117], [-110.13147416779016, 44.83021868022065], [-110.33725736394526, 44.868066077330035], [-110.36534955115094, 44.87938828234236], [-110.5298640330844, 44.97657786884345], [-110.50816383714562, 45.001799940689445], [-110.40315453673098, 45.02633371897857], [-110.2423586102513, 44.97085547806166], [-110.13712301088003, 44.88400431712117]]]}, "properties": {"level": 0.95, "what": "estimate", "area": 341931839.5, "source_file": "1995_2022-mcps/2022_Wolf Territory Shapefiles/mcp_outputs/junction_butte_95_mcp_2022.shp", "year": 2022, "interpretation": "historical 95% minimum convex polygon; not population density or current distribution"}}, {"type": "Feature", "geometry": {"type": "Polygon", "coordinates": [[[-110.60676227619136, 44.955740893996435], [-110.56416573607954, 44.90688526922448], [-110.56143416351752, 44.88462164380384], [-110.66349971071793, 44.955265016877505], [-110.66588348966083, 44.95739648670388], [-110.69254490915148, 44.99327219270169], [-110.67633069824741, 45.01147428930987], [-110.66649881288863, 45.01092389089076], [-110.60676227619136, 44.955740893996435]]]}, "properties": {"level": 0.95, "what": "estimate", "area": 42706408.0, "source_file": "1995_2022-mcps/2022_Wolf Territory Shapefiles/mcp_outputs/lupine_creek_95_mcp_2022.shp", "year": 2022, "interpretation": "historical 95% minimum convex polygon; not population density or current distribution"}}, {"type": "Feature", "geometry": {"type": "Polygon", "coordinates": [[[-110.24761456005578, 44.53615970908336], [-110.28487933522023, 44.53344625246424], [-110.35188142516968, 44.556730831386076], [-110.32018969080305, 44.7456344820789], [-110.24857440701965, 44.74397941102689], [-110.05282424175647, 44.67329535373526], [-110.24761456005578, 44.53615970908336]]]}, "properties": {"level": 0.95, "what": "estimate", "area": 338657042.0, "source_file": "1995_2022-mcps/2022_Wolf Territory Shapefiles/mcp_outputs/mollies_95_mcp_2022.shp", "year": 2022, "interpretation": "historical 95% minimum convex polygon; not population density or current distribution"}}, {"type": "Feature", "geometry": {"type": "Polygon", "coordinates": [[[-110.37501897077377, 44.873896303339635], [-110.39121762776708, 44.84326847598274], [-110.39158455688687, 44.843270431400796], [-110.40590550895719, 44.84476817175664], [-110.60853302810702, 44.98059243373727], [-110.5876071867381, 45.00329369450585], [-110.53050251586806, 44.98692374210104], [-110.37905943963865, 44.940785728501254], [-110.37501897077377, 44.873896303339635]]]}, "properties": {"level": 0.95, "what": "estimate", "area": 139965689.0, "source_file": "1995_2022-mcps/2022_Wolf Territory Shapefiles/mcp_outputs/rescue_creek_95_mcp_2022.shp", "year": 2022, "interpretation": "historical 95% minimum convex polygon; not population density or current distribution"}}, {"type": "Feature", "geometry": {"type": "Polygon", "coordinates": [[[-110.05156965877903, 44.79956963989857], [-110.13099697339582, 44.818197116508564], [-110.15350021783871, 44.8240735366913], [-110.16760143143703, 44.84095726483164], [-110.17673280580878, 44.87321513698172], [-110.17617420236768, 44.87864838782391], [-110.07192733868426, 44.96016350792877], [-110.00141399703645, 44.923155521526716], [-110.05156965877903, 44.79956963989857]]]}, "properties": {"level": 0.95, "what": "estimate", "area": 151289214.0, "source_file": "1995_2022-mcps/2022_Wolf Territory Shapefiles/mcp_outputs/shrimp_lake_95_mcp_2022.shp", "year": 2022, "interpretation": "historical 95% minimum convex polygon; not population density or current distribution"}}, {"type": "Feature", "geometry": {"type": "Polygon", "coordinates": [[[-110.44504263656316, 44.62434465356819], [-110.81513662373824, 44.46106494138957], [-110.84165212957537, 44.47350159261676], [-110.87833804484306, 44.535386183404604], [-110.9536185863406, 44.69352611814559], [-110.70928272924343, 45.0049375158099], [-110.65251876863233, 44.999656818523896], [-110.39007663316376, 44.8650566040215], [-110.44504263656316, 44.62434465356819]]]}, "properties": {"level": 0.95, "what": "estimate", "area": 1672612907.0, "source_file": "1995_2022-mcps/2022_Wolf Territory Shapefiles/mcp_outputs/wapiti_lake_95_mcp_2022.shp", "year": 2022, "interpretation": "historical 95% minimum convex polygon; not population density or current distribution"}}, {"type": "Feature", "geometry": {"type": "Polygon", "coordinates": [[[-110.13712301088003, 44.88400431712117], [-110.13147416779016, 44.83021868022065], [-110.33725736394526, 44.868066077330035], [-110.36534955115094, 44.87938828234236], [-110.5298640330844, 44.97657786884345], [-110.50816383714562, 45.001799940689445], [-110.40315453673098, 45.02633371897857], [-110.2423586102513, 44.97085547806166], [-110.13712301088003, 44.88400431712117]]]}, "properties": {"level": 0.95, "what": "estimate", "area": 341931839.5, "source_file": "1995_2022-mcps/2022_Wolf Territory Shapefiles/mcp_outputs/willow_creek_95_mcp_2022.shp", "year": 2022, "interpretation": "historical 95% minimum convex polygon; not population density or current distribution"}}]}