{"type": "FeatureCollection", "features": [{"type": "Feature", "geometry": {"type": "MultiPolygon", "coordinates": [[[[84.4339572, 27.6987839], [84.4340708, 27.6985063], [84.4342225, 27.6981357], [84.4351962, 27.6985344], [84.4351724, 27.6986102], [84.4351514, 27.6987421], [84.4351436, 27.69896], [84.4351249, 27.6991022], [84.4347012, 27.6990403], [84.4345631, 27.6990057], [84.4343225, 27.6989263], [84.4339572, 27.6987839]]]]}, "properties": {"leisure": "sports_centre", "name": "Chitrawati Leisure Center", "osm_id": 329280774}}, {"type": "Feature", "geometry": {"type": "MultiPolygon", "coordinates": [[[[84.4078686, 27.7045461], [84.4078786, 27.7043754], [84.4079079, 27.7043768], [84.407912, 27.7043075], [84.4079522, 27.7043093], [84.4079534, 27.7042886], [84.4080319, 27.7042922], [84.4080184, 27.7045237], [84.4079054, 27.7045185], [84.4079037, 27.7045477], [84.4078686, 27.7045461]]]]}, "properties": {"building": "yes", "leisure": "sports_centre", "name": "Chitwan Gym hall", "source": "Bing", "osm_id": 344612498}}, {"type": "Feature", "geometry": {"type": "MultiPolygon", "coordinates": [[[[84.4997805, 27.5784557], [84.4999412, 27.5783144], [84.5000153, 27.5783805], [84.4998546, 27.5785219], [84.4997805, 27.5784557]]]]}, "properties": {"addr:city": "sauraha", "addr:place": "Ratnanagar-06", "air_conditioning": "yes", "building": "hotel", "contact:facebook": "www.facebook.com/hotelnationalpark", "description": "Featuring free WiFi and a barbecue, Hotel National Park Sauraha offers accommodation in Sauraha, 10 minute walk to the banks of the Rapti River. The property is a 10-minute walk from Chitwan National Park Entrance. The hotel has a terrace.", "email": "peaceful.cottage0@gmail.com", "leisure": "park", "name": "Chitwan Nationa Park Safari Booking", "opening_hours": "Mo-Su 06:00-22:00", "operator": "Hotel National Park Sauraha", "operator:type": "private", "payment:american_express": "yes", "payment:cash": "yes", "payment:debit_cards": "yes", "payment:mastercard": "yes", "payment:visa": "yes", "phone": "+9779845155749", "website": "www.https://www.booking.com/hotel/np/national-park.en-gb.html?#tab-reviews.com.np", "osm_id": 1096508795}}, {"type": "Feature", "geometry": {"type": "MultiPolygon", "coordinates": [[[[83.9193619, 27.5379668], [83.91957, 27.5273152], [83.9224099, 27.5246192], [83.9217093, 27.5208358], [83.9233573, 27.5166702], [83.9298396, 27.5132009], [83.9380794, 27.5143427], [83.946553, 27.5190318], [83.9508961, 27.5262382], [83.9526877, 27.5273973], [83.9541705, 27.5278099], [83.965513, 27.5223353], [83.9690407, 27.5179433], [83.9698825, 27.513602], [83.9686008, 27.5096325], [83.9649701, 27.5050782], [83.9573484, 27.500478], [83.9487589, 27.4969073], [83.9402423, 27.4933175], [83.9385901, 27.4895753], [83.9396694, 27.4837638], [83.9433945, 27.4755247], [83.9449835, 27.4694837], [83.9442287, 27.4663754], [83.9431799, 27.4620568], [83.9394668, 27.4548108], [83.9340205, 27.4485451], [83.9349148, 27.4483344], [83.9355509, 27.448319], [83.9363384, 27.448149], [83.937829, 27.447938], [83.9399062, 27.4477228], [83.9413624, 27.4483914], [83.9422101, 27.4485846], [83.9427432, 27.4480981], [83.9427977, 27.4474259], [83.9438576, 27.4461899], [83.9450907, 27.4449456], [83.9457355, 27.4437098], [83.9459362, 27.4429405], [83.9468842, 27.4423416], [83.9471099, 27.442395], [83.948201, 27.4422322], [83.9489566, 27.4422794], [83.9498611, 27.4424683], [83.9513721, 27.4428649], [83.952266, 27.4429688], [83.9530428, 27.442931], [83.9555328, 27.4424683], [83.9565437, 27.4423549], [83.9575333, 27.4423833], [83.9582144, 27.4426666], [83.9590231, 27.4433749], [83.9594807, 27.4438848], [83.960183, 27.4443759], [83.9610769, 27.4446214], [83.9623432, 27.4449142], [83.9655366, 27.4463546], [83.9664471, 27.4467485], [83.9671995, 27.4468954], [83.9677865, 27.446842], [83.9685539, 27.4465148], [83.9699159, 27.4455733], [83.9701567, 27.4453129], [83.970262, 27.4449055], [83.9700814, 27.444378], [83.9700438, 27.4438505], [83.9705479, 27.4430759], [83.9712176, 27.4426752], [83.9719324, 27.4425082], [83.9726999, 27.4425817], [83.9733395, 27.4430491], [83.9745359, 27.4431827], [83.9762063, 27.4430491], [83.9776661, 27.4426952], [83.97811, 27.4423947], [83.9783132, 27.4418138], [83.977809, 27.4407186], [83.9773199, 27.439944], [83.9771394, 27.4394565], [83.9773576, 27.4391626], [83.977636, 27.4390224], [83.9781251, 27.4390224], [83.9788248, 27.4396368], [83.9800814, 27.4410458], [83.9821958, 27.4427754], [83.983791, 27.4437369], [83.9851303, 27.4441309], [83.9868459, 27.4436969], [83.9876736, 27.4437102], [83.9882153, 27.4439306], [83.9892161, 27.4443914], [83.9907436, 27.4444247], [83.9919926, 27.4444515], [83.9933621, 27.4451326], [83.9944305, 27.4459472], [83.995025, 27.4462878], [83.9957398, 27.4464147], [83.9961386, 27.4463212], [83.9966202, 27.4460941], [83.9968158, 27.4458337], [83.9968835, 27.4451125], [83.9969061, 27.4447319], [83.9969061, 27.4444715], [83.9972823, 27.4435299], [83.9975833, 27.4432161], [83.9976585, 27.4428288], [83.9974178, 27.4423747], [83.9972372, 27.441934], [83.9975306, 27.4416067], [83.9979294, 27.4413997], [83.9981401, 27.4413463], [83.9985163, 27.4416001], [83.9985991, 27.4418939], [83.9986518, 27.4422612], [83.9990355, 27.4423547], [83.9994644, 27.4422478], [84.0003899, 27.4409456], [84.0008865, 27.4404915], [84.0012026, 27.4405049], [84.0014283, 27.4408388], [84.0015186, 27.4414264], [84.0019625, 27.4420742], [84.0023839, 27.4424281], [84.0029031, 27.4425617], [84.0031363, 27.4424415], [84.0032567, 27.4420608], [84.0033621, 27.4415066], [84.0036405, 27.441373], [84.0040393, 27.4416201], [84.004408, 27.4419139], [84.0047842, 27.4423613], [84.0049497, 27.4424815], [84.0056495, 27.4422011], [84.0059129, 27.4410525], [84.0056871, 27.440565], [84.0051604, 27.4401577], [84.0051303, 27.4400041], [84.0052883, 27.4397703], [84.005642, 27.4398304], [84.0063794, 27.4400975], [84.0072071, 27.4403847], [84.0082003, 27.4406184], [84.0085088, 27.4404782], [84.0087722, 27.4401577], [84.0087345, 27.4398438], [84.0085013, 27.4392094], [84.0084035, 27.4385216], [84.0084411, 27.4380942], [84.0087646, 27.4376534], [84.0092763, 27.437413], [84.0105479, 27.4372527], [84.0114734, 27.437413], [84.0128354, 27.43758], [84.0132041, 27.4375599], [84.0139264, 27.4373529], [84.0142725, 27.4370257], [84.0146111, 27.4361041], [84.0151303, 27.4352293], [84.0156269, 27.4346816], [84.0161837, 27.4344746], [84.0168534, 27.434508], [84.0175156, 27.4347551], [84.0180573, 27.4350489], [84.0183207, 27.4356767], [84.0183357, 27.4361642], [84.0185765, 27.4363445], [84.0188775, 27.4363445], [84.0190957, 27.4361508], [84.0193139, 27.43565], [84.019514, 27.4353127], [84.0202749, 27.4350813], [84.0205515, 27.4347413], [84.0207324, 27.4342407], [84.0208122, 27.4338677], [84.0209878, 27.4336599], [84.0212858, 27.4336363], [84.021621, 27.4335985], [84.022036, 27.433301], [84.0222914, 27.433098], [84.023297, 27.4326871], [84.0238929, 27.4326729], [84.0241589, 27.4328382], [84.02426, 27.4331074], [84.0245116, 27.4336504], [84.0248148, 27.434151], [84.0252192, 27.4345099], [84.0255597, 27.4345429], [84.0260865, 27.4342879], [84.0263153, 27.4340802], [84.0263259, 27.433844], [84.0264217, 27.4335654], [84.0265813, 27.4333718], [84.0268792, 27.4333718], [84.0270232, 27.4334562], [84.0271453, 27.4335277], [84.0272517, 27.4339715], [84.0272357, 27.4347035], [84.0273953, 27.4354921], [84.0271123, 27.4361316], [84.0269242, 27.4367994], [84.0268113, 27.436933], [84.0264878, 27.4370599], [84.025931, 27.4372068], [84.0255848, 27.437741], [84.025472, 27.4381751], [84.0257203, 27.4387027], [84.0262545, 27.4391167], [84.0275713, 27.4397645], [84.028098, 27.4398313], [84.0286247, 27.4397378], [84.0293546, 27.4393438], [84.0297985, 27.438903], [84.0301748, 27.4386159], [84.0304306, 27.4386225], [84.0309046, 27.4388162], [84.031341, 27.4392703], [84.0313862, 27.4399448], [84.0312959, 27.4404389], [84.0312658, 27.440853], [84.0314238, 27.4413805], [84.0317925, 27.4416476], [84.0326352, 27.4417011], [84.0332748, 27.441681], [84.0344863, 27.4412731], [84.0362223, 27.4414107], [84.0373077, 27.4429595], [84.039585, 27.443375], [84.040415, 27.4429784], [84.0424794, 27.4429784], [84.0435435, 27.4436583], [84.0440117, 27.4434128], [84.0454802, 27.4438094], [84.0460548, 27.4433561], [84.0471189, 27.4433183], [84.0480553, 27.4430161], [84.0518649, 27.4434317], [84.0525885, 27.446227], [84.0537377, 27.4473413], [84.053867, 27.448737], [84.0542583, 27.4496184], [84.0555525, 27.4506601], [84.0562297, 27.4506734], [84.0582763, 27.4523561], [84.0582162, 27.454012], [84.0598565, 27.4547598], [84.0611657, 27.4558816], [84.0611958, 27.457257], [84.0586225, 27.4591532], [84.0585924, 27.4609292], [84.0582312, 27.4613432], [84.0581861, 27.4621711], [84.0606541, 27.4622245], [84.0605788, 27.4629589], [84.0617978, 27.4647882], [84.0617827, 27.4660968], [84.0621289, 27.4670849], [84.0630017, 27.4682733], [84.0654998, 27.4690077], [84.0668241, 27.4701025], [84.0669897, 27.4722389], [84.0682237, 27.4733871], [84.0678475, 27.4767918], [84.0685999, 27.4781002], [84.0702402, 27.4808505], [84.0702854, 27.4815848], [84.0711281, 27.4820254], [84.0713839, 27.4818919], [84.0714592, 27.4809039], [84.0719709, 27.4806369], [84.0731748, 27.4806235], [84.0753719, 27.482733], [84.0765608, 27.4829733], [84.0777496, 27.484335], [84.0800521, 27.4844685], [84.0808949, 27.4837076], [84.0816323, 27.4836809], [84.0822192, 27.4833738], [84.0838683, 27.4832973], [84.0860805, 27.4848993], [84.0884733, 27.4853532], [84.0895869, 27.4861275], [84.0911068, 27.486982], [84.0910466, 27.4889711], [84.0947336, 27.4892381], [84.0959225, 27.4906532], [84.095787, 27.4922952], [84.0961633, 27.4940306], [84.0970511, 27.4955791], [84.0974424, 27.4980353], [84.0978186, 27.4984892], [84.0977735, 27.4997973], [84.0985259, 27.5009987], [84.0984888, 27.5027107], [84.0975099, 27.5046739], [84.0988719, 27.5055234], [84.0984463, 27.5079396], [84.0997019, 27.5087324], [84.0995317, 27.5124132], [84.0972309, 27.5163153], [84.0986036, 27.5173251], [84.1004126, 27.5174384], [84.102211, 27.5182783], [84.1027537, 27.5189012], [84.1034206, 27.5189373], [84.1056177, 27.5211661], [84.1074312, 27.521182], [84.1081655, 27.521635], [84.1089104, 27.5216067], [84.1093147, 27.5213236], [84.1093999, 27.5203798], [84.1105704, 27.5198231], [84.1128902, 27.5198419], [84.1141458, 27.5190586], [84.1156675, 27.5192663], [84.1173169, 27.5188322], [84.1173499, 27.5145772], [84.1177543, 27.513926], [84.1177968, 27.5133786], [84.1190844, 27.5126236], [84.1203081, 27.5127274], [84.1208083, 27.5121706], [84.1225322, 27.5119158], [84.1236282, 27.5111513], [84.1255117, 27.5116138], [84.128289, 27.5116704], [84.1288211, 27.5119913], [84.1302683, 27.5120385], [84.1333649, 27.5146716], [84.134131, 27.5146338], [84.1353441, 27.5150302], [84.135972, 27.5157191], [84.1369513, 27.5158871], [84.1378618, 27.5173419], [84.1389302, 27.517769], [84.1393516, 27.5173419], [84.1397128, 27.5173152], [84.1403298, 27.5177957], [84.1419551, 27.517809], [84.1426925, 27.5170616], [84.1440017, 27.5171817], [84.1455518, 27.5187032], [84.1494344, 27.516461], [84.150864, 27.5165811], [84.1509055, 27.5142474], [84.1504842, 27.5138336], [84.1504992, 27.5130995], [84.150138, 27.5127792], [84.1500628, 27.5122587], [84.1505443, 27.5117515], [84.1504089, 27.5098428], [84.1493254, 27.5092289], [84.149205, 27.508121], [84.1497016, 27.5076005], [84.1496866, 27.5068797], [84.1488589, 27.5059453], [84.1492652, 27.504437], [84.1486322, 27.5029103], [84.1486641, 27.5023156], [84.1495048, 27.5017682], [84.1497602, 27.500947], [84.145055, 27.4974579], [84.1446932, 27.4966462], [84.1456935, 27.4952397], [84.1458638, 27.4942203], [84.1456616, 27.4935784], [84.1470449, 27.4913601], [84.1474812, 27.4904067], [84.1489996, 27.4889144], [84.1491166, 27.4875834], [84.1486378, 27.4871209], [84.1489145, 27.4862902], [84.1520962, 27.4863846], [84.1539903, 27.4845437], [84.1560653, 27.4846193], [84.1567357, 27.4842794], [84.1577998, 27.4842605], [84.1593641, 27.4848741], [84.1622585, 27.4846004], [84.1641846, 27.4840812], [84.1669921, 27.4819237], [84.1672901, 27.4803188], [84.1680243, 27.4796674], [84.1700249, 27.4796202], [84.1713869, 27.4787989], [84.1713231, 27.4762876], [84.173164, 27.4761649], [84.1759946, 27.474305], [84.177612, 27.4741256], [84.1780909, 27.474541], [84.1786229, 27.4745316], [84.1796126, 27.4749376], [84.1811981, 27.473984], [84.1823593, 27.4741099], [84.1839093, 27.4724543], [84.1845263, 27.4724276], [84.1852788, 27.4728415], [84.1863472, 27.4728415], [84.1880628, 27.4725344], [84.1889657, 27.4718801], [84.1895075, 27.4709054], [84.1908017, 27.4695302], [84.1913886, 27.4696103], [84.1923644, 27.4707938], [84.1932795, 27.4726443], [84.1941521, 27.4732108], [84.1948332, 27.4729275], [84.1953439, 27.4722478], [84.1960362, 27.4726138], [84.1988654, 27.4722666], [84.2026878, 27.470878], [84.2045238, 27.4704241], [84.2057578, 27.4695695], [84.2071122, 27.4679405], [84.2072326, 27.466899], [84.2087977, 27.465911], [84.2087977, 27.4651365], [84.2059685, 27.462733], [84.2041325, 27.4592077], [84.207691, 27.4568717], [84.2076458, 27.4559102], [84.2072245, 27.4554294], [84.2072846, 27.4544546], [84.2077813, 27.4541475], [84.2081575, 27.4534664], [84.2075706, 27.452999], [84.2075555, 27.4494601], [84.2072696, 27.4482982], [84.2063065, 27.4468559], [84.2063065, 27.4458676], [84.2076007, 27.4441982], [84.2075405, 27.44329], [84.2078114, 27.442836], [84.2091056, 27.4426623], [84.209542, 27.4421148], [84.2106255, 27.4421815], [84.213846, 27.4419278], [84.2156217, 27.4423017], [84.2162387, 27.4418877], [84.2170062, 27.4419144], [84.2183907, 27.440886], [84.2193087, 27.4409261], [84.2210544, 27.4428894], [84.2209039, 27.4460412], [84.2203922, 27.4472031], [84.2202418, 27.4480578], [84.221235, 27.4484318], [84.2233719, 27.4507688], [84.2249972, 27.4513965], [84.2264419, 27.45153], [84.2278866, 27.4526384], [84.228925, 27.4538003], [84.2296624, 27.4546549], [84.2299032, 27.4553627], [84.2309114, 27.4563909], [84.2318746, 27.4563642], [84.2336202, 27.4544279], [84.2394592, 27.4527853], [84.240618, 27.453827], [84.2421379, 27.4548152], [84.2442158, 27.4551946], [84.2451416, 27.4544392], [84.2457481, 27.4536082], [84.2464717, 27.4532116], [84.247206, 27.4533061], [84.2483233, 27.453731], [84.2508027, 27.4537593], [84.2511964, 27.453476], [84.2523669, 27.4534288], [84.2540802, 27.4528339], [84.2546654, 27.4522012], [84.25441, 27.4510114], [84.2546442, 27.4501615], [84.2562723, 27.4486317], [84.2591773, 27.4470059], [84.2597519, 27.445986], [84.2596029, 27.4446261], [84.2593562, 27.4440807], [84.2586665, 27.4429263], [84.2586027, 27.4397531], [84.2599647, 27.4375999], [84.2623271, 27.4355221], [84.2642851, 27.4355032], [84.2663067, 27.4345815], [84.2676902, 27.432651], [84.2692864, 27.4311587], [84.270308, 27.4308376], [84.2726703, 27.4292509], [84.2726703, 27.4267007], [84.2723085, 27.4261151], [84.2728619, 27.4253217], [84.2732024, 27.4225826], [84.2742452, 27.4208257], [84.2753306, 27.41956], [84.2776078, 27.4171607], [84.2784591, 27.4149126], [84.2782463, 27.4121354], [84.2776717, 27.4103783], [84.2781612, 27.4087346], [84.2789486, 27.4075255], [84.278076, 27.4046536], [84.2766927, 27.4029909], [84.2751816, 27.4015549], [84.2751178, 27.4006102], [84.2756711, 27.4002512], [84.2757988, 27.3987396], [84.2762245, 27.3981161], [84.276267, 27.3966989], [84.2766501, 27.3960754], [84.2774589, 27.3960943], [84.2779909, 27.3965667], [84.2800766, 27.3969257], [84.2810499, 27.3974352], [84.2829461, 27.3968607], [84.2830665, 27.3961659], [84.2846466, 27.3936807], [84.2848422, 27.392545], [84.2877015, 27.3899795], [84.289989, 27.3870532], [84.2922162, 27.3856368], [84.2939619, 27.3849153], [84.2957076, 27.3860243], [84.2960687, 27.3871601], [84.2968964, 27.3879752], [84.2969115, 27.3887903], [84.2972576, 27.3890175], [84.2974382, 27.3897123], [84.2989431, 27.3898994], [84.2992892, 27.3905674], [84.3002523, 27.3911153], [84.3027956, 27.3898325], [84.3057452, 27.3882558], [84.3080176, 27.3880554], [84.3105458, 27.3871201], [84.3127279, 27.386345], [84.3150003, 27.384314], [84.3158881, 27.384167], [84.3169115, 27.3830311], [84.3197858, 27.3821492], [84.3220431, 27.3820289], [84.3239393, 27.3813207], [84.327235, 27.3812272], [84.3289957, 27.3805189], [84.3310725, 27.3795301], [84.3324269, 27.3782873], [84.3370921, 27.3784209], [84.3385368, 27.378314], [84.3412606, 27.3769509], [84.3470432, 27.3755501], [84.347614, 27.3755719], [84.3505122, 27.3756824], [84.3534279, 27.3749832], [84.3560882, 27.3756635], [84.3590602, 27.3748316], [84.3600041, 27.3745674], [84.3623522, 27.375591], [84.3634207, 27.3753504], [84.3643086, 27.3745753], [84.3668067, 27.3745085], [84.3677398, 27.3749896], [84.3696811, 27.3754841], [84.3720889, 27.3766467], [84.377356, 27.3763661], [84.3804109, 27.3755509], [84.383511, 27.3745753], [84.3849106, 27.3738671], [84.3864004, 27.373827], [84.3877699, 27.3729583], [84.3894403, 27.3716754], [84.3912311, 27.3691362], [84.3924802, 27.3692565], [84.3953696, 27.3711007], [84.3966638, 27.3715417], [84.3979881, 27.3705929], [84.3989361, 27.3704459], [84.3994478, 27.3709003], [84.4012988, 27.3712611], [84.4021566, 27.3709003], [84.4038571, 27.3709136], [84.4046204, 27.3712143], [84.4058586, 27.3717021], [84.4072431, 27.3706597], [84.4103733, 27.3694836], [84.412435, 27.3706998], [84.4130671, 27.3717422], [84.415821, 27.3718758], [84.4172808, 27.3707533], [84.4202604, 27.3707399], [84.4209376, 27.3714749], [84.4234207, 27.3730652], [84.4251513, 27.3728514], [84.4276495, 27.3720897], [84.4307796, 27.3722233], [84.4316374, 27.3714749], [84.4326307, 27.3714749], [84.4339249, 27.3707132], [84.4361069, 27.3704325], [84.4371303, 27.3708067], [84.4393274, 27.3707265], [84.440125, 27.3711542], [84.4409828, 27.3711943], [84.4424726, 27.3705795], [84.4437668, 27.3694436], [84.4440076, 27.3680804], [84.4449858, 27.3657416], [84.4460543, 27.3650733], [84.4481461, 27.3642313], [84.4510204, 27.3642714], [84.4526156, 27.3637368], [84.4550836, 27.3638037], [84.4574463, 27.3633492], [84.4586954, 27.3618657], [84.4608624, 27.3612776], [84.4618105, 27.3604624], [84.4635712, 27.3609301], [84.4643237, 27.3609702], [84.4649106, 27.3605292], [84.4660242, 27.3580699], [84.4691694, 27.3563324], [84.4698767, 27.3561319], [84.4720738, 27.3567333], [84.4729166, 27.3577358], [84.4728173, 27.3591846], [84.4736149, 27.3598395], [84.4756013, 27.3629537], [84.4772717, 27.3630339], [84.4787164, 27.361978], [84.4813349, 27.3614568], [84.4862269, 27.3589062], [84.4837985, 27.366753], [84.4874838, 27.3691996], [84.4875374, 27.3718197], [84.488605, 27.3720124], [84.4930199, 27.3735537], [84.4947618, 27.3766284], [84.5019577, 27.3768072], [84.5023754, 27.3801466], [84.5040821, 27.3814945], [84.5103047, 27.381323], [84.5118168, 27.3830522], [84.5160126, 27.383819], [84.5207332, 27.3843144], [84.5289883, 27.3820159], [84.5311931, 27.3810707], [84.5314935, 27.3832428], [84.5329955, 27.3846908], [84.5355972, 27.384912], [84.5382741, 27.3853005], [84.5396742, 27.3861886], [84.5395615, 27.3879488], [84.5387301, 27.388856], [84.5361927, 27.3915497], [84.5355503, 27.3931881], [84.5352582, 27.3943004], [84.5351681, 27.4033348], [84.5466265, 27.4036015], [84.5453391, 27.4103449], [84.5412835, 27.4105666], [84.5391164, 27.4125165], [84.5346961, 27.4123641], [84.5323571, 27.4141858], [84.5328078, 27.4150308], [84.5352754, 27.4149668], [84.5364985, 27.4157927], [84.5415196, 27.4194879], [84.5476994, 27.4177356], [84.5477388, 27.4268628], [84.5500891, 27.4300977], [84.5517922, 27.4382299], [84.5554709, 27.4413134], [84.5577364, 27.4586291], [84.5605802, 27.462079], [84.5646573, 27.4637467], [84.5720147, 27.4598781], [84.5761969, 27.4545555], [84.581747, 27.4546437], [84.5831189, 27.4572183], [84.5876253, 27.4549762], [84.5935862, 27.4535858], [84.5959261, 27.4554653], [84.6006711, 27.4519536], [84.606826, 27.4546794], [84.6104845, 27.4523134], [84.6212001, 27.4518381], [84.6221641, 27.4503395], [84.6280125, 27.4509918], [84.6346886, 27.445309], [84.6422504, 27.4442813], [84.6471553, 27.4292264], [84.656781, 27.4329654], [84.6635225, 27.4305825], [84.6653982, 27.4346695], [84.6655585, 27.4398368], [84.6673924, 27.4451934], [84.674639, 27.4464101], [84.6758485, 27.4475375], [84.679019, 27.448875], [84.6800695, 27.448243], [84.6809241, 27.4484168], [84.6811769, 27.4509818], [84.6827402, 27.4504866], [84.6848412, 27.4531884], [84.6861053, 27.454405], [84.6856068, 27.455827], [84.6849539, 27.4569701], [84.6886805, 27.457417], [84.6925079, 27.4596066], [84.6903424, 27.4625558], [84.686364, 27.4618856], [84.6858942, 27.4623526], [84.6860685, 27.4636897], [84.6888383, 27.4648515], [84.6904498, 27.4663261], [84.6916081, 27.4677559], [84.6926657, 27.4682474], [84.6929175, 27.4701688], [84.6905505, 27.4720007], [84.6903995, 27.4731624], [84.6963419, 27.4751283], [84.6966441, 27.4758879], [84.6940254, 27.4778538], [84.695939, 27.4801324], [84.6941764, 27.4818748], [84.6925146, 27.485985], [84.6924203, 27.4921216], [84.6871764, 27.503273], [84.6800757, 27.5113577], [84.6797879, 27.5151167], [84.6808311, 27.5214069], [84.6790731, 27.5247342], [84.6785879, 27.5279023], [84.6820752, 27.5322419], [84.6808665, 27.5368637], [84.6823522, 27.5416194], [84.6834097, 27.5437627], [84.6806651, 27.548451], [84.6799349, 27.5515318], [84.6815718, 27.5548617], [84.6844202, 27.555744], [84.6860403, 27.5592322], [84.6864143, 27.5600375], [84.6879812, 27.5628471], [84.6903846, 27.5650596], [84.6939102, 27.5637942], [84.6957975, 27.5618211], [84.7010105, 27.5600148], [84.7079226, 27.5606531], [84.7104584, 27.5617803], [84.7144092, 27.5661364], [84.7142215, 27.566401], [84.7218627, 27.5745349], [84.7254954, 27.5775989], [84.7308204, 27.5814592], [84.7321297, 27.5841263], [84.7320416, 27.5856885], [84.733502, 27.5874312], [84.7338463, 27.5880726], [84.7338747, 27.5885496], [84.7332452, 27.5889095], [84.7329906, 27.5899335], [84.7334357, 27.5907107], [84.7340633, 27.5912709], [84.7336799, 27.5927786], [84.7334678, 27.5934717], [84.7333199, 27.5944466], [84.7325961, 27.596585], [84.735103, 27.5976062], [84.7357437, 27.5984687], [84.7361863, 27.5995003], [84.7361943, 27.5999995], [84.7362801, 27.6004464], [84.7365993, 27.6013235], [84.7373664, 27.6025096], [84.7381864, 27.6033808], [84.7383749, 27.6036814], [84.7383749, 27.6038501], [84.7382703, 27.6039737], [84.7381389, 27.604095], [84.7378321, 27.6042016], [84.7362147, 27.6046142], [84.7361718, 27.6056931], [84.7366389, 27.6063988], [84.735767, 27.6073016], [84.735547, 27.6090199], [84.7342531, 27.6119218], [84.734046, 27.6133218], [84.7345551, 27.6161889], [84.7315148, 27.6169887], [84.7308666, 27.6191832], [84.730736, 27.6196252], [84.7305885, 27.6201245], [84.7314198, 27.6243335], [84.7265269, 27.6265642], [84.7245053, 27.6266189], [84.723089, 27.6266572], [84.7230867, 27.6266849], [84.7228416, 27.6295914], [84.7228691, 27.6302258], [84.7226761, 27.6303996], [84.7185225, 27.6341398], [84.7183767, 27.6353327], [84.717156, 27.6383922], [84.7205736, 27.6443086], [84.7220853, 27.6468908], [84.7296953, 27.6464865], [84.7271207, 27.6499836], [84.7308616, 27.6534025], [84.7316246, 27.6538216], [84.7317115, 27.6542764], [84.7313011, 27.6551426], [84.731413, 27.6557566], [84.7330494, 27.655889], [84.7351973, 27.6569985], [84.7455018, 27.6557766], [84.745911, 27.6532606], [84.7426692, 27.6503823], [84.7425561, 27.6503089], [84.7432584, 27.6478065], [84.7437291, 27.6475196], [84.744544, 27.647795], [84.7470274, 27.6493753], [84.7478514, 27.6494656], [84.7485346, 27.6495405], [84.7521075, 27.649932], [84.7528122, 27.6520526], [84.7534971, 27.6543371], [84.753587, 27.654622], [84.7540714, 27.6545656], [84.75544, 27.6543875], [84.7592217, 27.653909], [84.766905, 27.6566248], [84.770282, 27.6619806], [84.7696535, 27.6682338], [84.7749354, 27.6684233], [84.779609, 27.6715966], [84.7818015, 27.6761688], [84.7831521, 27.6802426], [84.7918765, 27.6869402], [84.7862121, 27.6918472], [84.7908052, 27.6955691], [84.7920246, 27.6971135], [84.7929708, 27.7003211], [84.7956338, 27.7053835], [84.7963669, 27.7090174], [84.7944708, 27.7104274], [84.7941622, 27.7106569], [84.7911135, 27.712924], [84.7903095, 27.7135219], [84.7879307, 27.7152908], [84.7808535, 27.7186449], [84.7787721, 27.7203545], [84.775485, 27.7206001], [84.7731042, 27.7215622], [84.7703576, 27.722246], [84.7677189, 27.7249419], [84.7633804, 27.7296122], [84.7581941, 27.7328209], [84.7580014, 27.7350687], [84.7528679, 27.735012], [84.7460483, 27.7343423], [84.7450775, 27.7340805], [84.7439847, 27.7339042], [84.7366544, 27.7321177], [84.7283331, 27.7268309], [84.7247282, 27.729642], [84.718369, 27.7277894], [84.7149628, 27.7259502], [84.7116588, 27.7271864], [84.7081164, 27.7281211], [84.7025643, 27.727699], [84.7003503, 27.7271864], [84.6988489, 27.7264024], [84.695786, 27.7248045], [84.6929315, 27.7214079], [84.6884168, 27.7254689], [84.6849428, 27.7254689], [84.6844974, 27.7257632], [84.6830774, 27.7264979], [84.6822946, 27.7281441], [84.6807448, 27.7311742], [84.6783434, 27.7301642], [84.6753742, 27.730352], [84.6730513, 27.7336246], [84.6692664, 27.7384103], [84.675106, 27.7435308], [84.6748897, 27.7470959], [84.6773245, 27.74775], [84.6793736, 27.7513051], [84.6797584, 27.7533046], [84.6815156, 27.757611], [84.6814443, 27.7595777], [84.676379, 27.7634602], [84.6754443, 27.7635387], [84.6726752, 27.7637712], [84.6684839, 27.7662614], [84.6730243, 27.7750143], [84.674492, 27.7797792], [84.6618978, 27.7812409], [84.6499444, 27.7799311], [84.6487573, 27.7806973], [84.6469404, 27.7847151], [84.6376895, 27.7830835], [84.6389742, 27.7864325], [84.6372613, 27.7946507], [84.6375796, 27.7946626], [84.6378301, 27.7945129], [84.6381349, 27.7942313], [84.6388188, 27.7935963], [84.6392048, 27.7933866], [84.6395705, 27.793171], [84.6401123, 27.7930152], [84.6405186, 27.7929313], [84.6409114, 27.7929433], [84.6411755, 27.7930152], [84.6414938, 27.793153], [84.6420829, 27.7932488], [84.6431597, 27.7932488], [84.6433237, 27.7932748], [84.643803, 27.7933507], [84.6446224, 27.7937161], [84.6453921, 27.7942816], [84.6455118, 27.7945696], [84.6453442, 27.7949974], [84.6451192, 27.7956117], [84.6452724, 27.7958997], [84.6454113, 27.7963445], [84.6455022, 27.7966749], [84.645531, 27.7970138], [84.6454639, 27.7973103], [84.6453586, 27.7977339], [84.6452868, 27.798005], [84.6451, 27.7983354], [84.6449755, 27.7987124], [84.6449463, 27.7990023], [84.6451184, 27.7991987], [84.6452772, 27.7992758], [84.6456794, 27.7994875], [84.6459236, 27.7996061], [84.6460433, 27.7997163], [84.6460912, 27.7998857], [84.646096, 27.8000297], [84.6460769, 27.8001907], [84.6459763, 27.8003601], [84.64578, 27.8003898], [84.6455453, 27.8003601], [84.6451048, 27.8002796], [84.6445062, 27.8004067], [84.644171, 27.8005296], [84.643946, 27.8007541], [84.6436539, 27.8011522], [84.6435102, 27.8013894], [84.643084, 27.8016605], [84.6427105, 27.8018808], [84.6424041, 27.8019782], [84.6420114, 27.8022069], [84.6415709, 27.8026771], [84.6414703, 27.8028677], [84.6411591, 27.8032277], [84.6407984, 27.8034672], [84.6404394, 27.803557], [84.6400602, 27.8036948], [84.6397758, 27.8038386], [84.639532, 27.8040901], [84.6393624, 27.8042637], [84.6398356, 27.803377], [84.6382182, 27.8054978], [84.6380218, 27.8057794], [84.6378661, 27.806001], [84.63769, 27.8061987], [84.6373717, 27.8063844], [84.6371144, 27.8064562], [84.6366945, 27.8064323], [84.636295, 27.8064922], [84.6360309, 27.806624], [84.6359157, 27.8067977], [84.6358345, 27.8070253], [84.635611, 27.8072589], [84.6355162, 27.8073008], [84.635313, 27.8073428], [84.6352047, 27.8073128], [84.6351031, 27.8071391], [84.6350083, 27.8069893], [84.6348729, 27.8067917], [84.6347306, 27.8067018], [84.6344801, 27.8067318], [84.6342972, 27.8068336], [84.634155, 27.8070133], [84.634006, 27.807193], [84.6338977, 27.8073368], [84.6337013, 27.8075225], [84.6334621, 27.8075601], [84.6332069, 27.8076003], [84.6329157, 27.8074326], [84.6327803, 27.8072589], [84.6325907, 27.8070013], [84.6324349, 27.8067617], [84.6321911, 27.8065401], [84.6315072, 27.8064203], [84.6311686, 27.8064982], [84.6308977, 27.8067977], [84.6305609, 27.807225], [84.6304555, 27.8073775], [84.6303597, 27.8076062], [84.6301682, 27.8078688], [84.6300245, 27.8079789], [84.6297755, 27.8080297], [84.6294403, 27.807945], [84.6290764, 27.8078095], [84.6284539, 27.8076146], [84.6274292, 27.8074622], [84.6270365, 27.8075638], [84.6267109, 27.807801], [84.6263948, 27.8080043], [84.6261937, 27.808233], [84.6259543, 27.8084702], [84.6256574, 27.8087244], [84.6252552, 27.8090717], [84.6248721, 27.809402], [84.6245944, 27.8096392], [84.6242667, 27.8096731], [84.6240389, 27.8096392], [84.6236367, 27.8095122], [84.622312, 27.8093561], [84.6220563, 27.8092981], [84.6216824, 27.8092401], [84.6208954, 27.8091763], [84.6206951, 27.8092293], [84.6204232, 27.8091473], [84.6198395, 27.8090718], [84.6194657, 27.8090196], [84.6188606, 27.809028], [84.6183705, 27.8091589], [84.6179835, 27.8093445], [84.6182378, 27.8100677], [84.6210791, 27.8127437], [84.6215986, 27.8152904], [84.6221695, 27.8161646], [84.6317092, 27.8195352], [84.6390352, 27.8221236], [84.6415033, 27.8231158], [84.6428547, 27.8221995], [84.6479616, 27.8220477], [84.6538839, 27.8238316], [84.6643549, 27.8242418], [84.6651325, 27.8259541], [84.661441, 27.828512], [84.6610056, 27.8310506], [84.6630055, 27.8358748], [84.6636697, 27.839005], [84.6641096, 27.8408076], [84.6637537, 27.8415169], [84.6626303, 27.8433329], [84.6616483, 27.8453737], [84.6610285, 27.8480062], [84.6600074, 27.8499595], [84.6592437, 27.8506452], [84.658521, 27.851281], [84.6577692, 27.8515674], [84.6559662, 27.8522551], [84.653756, 27.8524404], [84.6495626, 27.8526805], [84.6471612, 27.8536081], [84.6466571, 27.8545993], [84.647173, 27.8556493], [84.6480044, 27.8564739], [84.6491622, 27.8576264], [84.6496805, 27.8584936], [84.6496558, 27.859256], [84.6474832, 27.860165], [84.6460189, 27.860656], [84.6393356, 27.859733], [84.6357772, 27.8604025], [84.6348772, 27.860679], [84.6343701, 27.8613955], [84.6327609, 27.8695233], [84.631028, 27.8699182], [84.629054, 27.8702859], [84.6262796, 27.8734598], [84.6277717, 27.8751498], [84.6273054, 27.8777877], [84.6258133, 27.8790242], [84.6222462, 27.8806111], [84.619122, 27.880879], [84.6174202, 27.8793116], [84.6139527, 27.8764392], [84.6139289, 27.8736161], [84.6137662, 27.8729562], [84.6127679, 27.8726461], [84.6069818, 27.8714723], [84.6051866, 27.8720082], [84.6042276, 27.8732613], [84.6037638, 27.8749434], [84.6025987, 27.8761094], [84.5992242, 27.8764124], [84.5979371, 27.8760649], [84.5939121, 27.8770561], [84.5925748, 27.8791974], [84.5898936, 27.8799496], [84.5887512, 27.8789295], [84.5869444, 27.8782803], [84.5839018, 27.8760237], [84.5808477, 27.8745192], [84.5776769, 27.8717369], [84.5765, 27.869198], [84.5776303, 27.8667286], [84.5775836, 27.8653065], [84.5760665, 27.8634332], [84.5736668, 27.8617407], [84.5729156, 27.8611786], [84.5699284, 27.8599336], [84.5659491, 27.8586025], [84.5643124, 27.8582132], [84.5625566, 27.8581566], [84.5610322, 27.8581923], [84.5592411, 27.8579518], [84.557998, 27.8575558], [84.5578451, 27.8564455], [84.5568516, 27.8530155], [84.5571327, 27.8510898], [84.5579815, 27.8491545], [84.5584374, 27.8481149], [84.5587678, 27.8460412], [84.5577185, 27.8421346], [84.5567654, 27.8390988], [84.5566263, 27.8380457], [84.5549698, 27.8357782], [84.54982, 27.8327005], [84.5455949, 27.8318333], [84.5418163, 27.8332375], [84.5391758, 27.8339063], [84.5381028, 27.8332587], [84.5334356, 27.8330907], [84.5293279, 27.8337821], [84.5235429, 27.8330553], [84.5224381, 27.8326965], [84.5207019, 27.8312432], [84.5202577, 27.8279755], [84.5206654, 27.8228025], [84.5196334, 27.8197408], [84.5182574, 27.8168851], [84.5172226, 27.8162277], [84.5116596, 27.8156061], [84.5081427, 27.8167278], [84.503628, 27.8194511], [84.496124, 27.8210135], [84.493541, 27.8193068], [84.4925852, 27.8192128], [84.4914457, 27.8195788], [84.4908415, 27.8200147], [84.4901283, 27.8205944], [84.4892822, 27.8209144], [84.488383, 27.8207834], [84.4849367, 27.8212354], [84.4816693, 27.8213141], [84.4797817, 27.8218357], [84.47677, 27.8232896], [84.4658878, 27.8247361], [84.4655949, 27.8237941], [84.4663443, 27.8211131], [84.4662421, 27.8199382], [84.4648966, 27.8188537], [84.4631519, 27.8194338], [84.4584589, 27.8195767], [84.454099, 27.8205407], [84.4526978, 27.8210449], [84.4461599, 27.8233974], [84.4449785, 27.8230414], [84.4428837, 27.8212039], [84.4416745, 27.8195169], [84.441305, 27.8174987], [84.4402269, 27.8165043], [84.4381831, 27.8155403], [84.4351857, 27.815465], [84.4326265, 27.8136683], [84.4311243, 27.8057563], [84.4310002, 27.8054771], [84.430698, 27.7989723], [84.4299717, 27.7913597], [84.4342635, 27.7830427], [84.4394065, 27.7782187], [84.4485695, 27.7783415], [84.4536814, 27.7770155], [84.4609706, 27.7737004], [84.4629803, 27.7708674], [84.4653646, 27.7693906], [84.4678852, 27.7658643], [84.4703036, 27.761313], [84.4717683, 27.7557368], [84.4717961, 27.7526838], [84.4713808, 27.7519682], [84.4707761, 27.7517385], [84.4679895, 27.7519951], [84.4661771, 27.7525118], [84.4636208, 27.7535953], [84.4607884, 27.7565196], [84.4590074, 27.7584374], [84.4568616, 27.7594248], [84.4542867, 27.7598235], [84.4533574, 27.7596376], [84.452291, 27.7594243], [84.450964, 27.7591589], [84.4484835, 27.7577206], [84.4437284, 27.7513564], [84.438172, 27.7434992], [84.4342452, 27.7412706], [84.4306833, 27.7412896], [84.4287383, 27.7419538], [84.4279581, 27.7422202], [84.426131, 27.7426057], [84.4241977, 27.7423066], [84.4222193, 27.7414135], [84.4222461, 27.7392542], [84.4252581, 27.7338601], [84.4266567, 27.7257826], [84.4270654, 27.7239038], [84.4312003, 27.711037], [84.4315978, 27.7080483], [84.4303639, 27.7054471], [84.4288248, 27.7043753], [84.4186355, 27.6998427], [84.4096018, 27.6971674], [84.4048457, 27.6949085], [84.3950961, 27.6893921], [84.3905421, 27.6874045], [84.3819055, 27.680247], [84.3753817, 27.6820173], [84.3672558, 27.687399], [84.3583624, 27.6990424], [84.3491348, 27.7025633], [84.3452344, 27.702714], [84.3289141, 27.6954483], [84.3251891, 27.6932054], [84.3244255, 27.6908177], [84.3233069, 27.6872302], [84.3179129, 27.6831883], [84.3094634, 27.6772256], [84.2961496, 27.6699349], [84.2715068, 27.6630445], [84.2626126, 27.6567305], [84.2585686, 27.6509768], [84.2548806, 27.6508635], [84.2510416, 27.6540485], [84.2429311, 27.6521567], [84.2361275, 27.6504079], [84.2281453, 27.6449338], [84.2159573, 27.6425007], [84.2068593, 27.6392312], [84.2017094, 27.6345929], [84.1865174, 27.6261522], [84.1724857, 27.6153397], [84.1511551, 27.5973272], [84.1354481, 27.5850039], [84.1298691, 27.5767877], [84.1261784, 27.5712337], [84.1254918, 27.5654512], [84.1224003, 27.5624986], [84.1192261, 27.5599728], [84.1190888, 27.5558665], [84.1154592, 27.5539633], [84.1117495, 27.5530277], [84.1080398, 27.551255], [84.0989987, 27.5521732], [84.0894429, 27.5545702], [84.079229, 27.5596684], [84.0751092, 27.5596684], [84.0709035, 27.5575378], [84.0677277, 27.5517546], [84.0627495, 27.5517546], [84.0570847, 27.5551789], [84.0509907, 27.5567008], [84.0461842, 27.5547224], [84.043266, 27.5506132], [84.0414635, 27.5449057], [84.038202, 27.5395023], [84.0338246, 27.5379802], [84.0265221, 27.536903], [84.0155358, 27.5391101], [84.0068669, 27.5445895], [83.9995713, 27.5458072], [83.993649, 27.5433719], [83.9834351, 27.5442851], [83.9767403, 27.5487751], [83.9672989, 27.5506014], [83.9611191, 27.5499165], [83.955915, 27.547455], [83.9543385, 27.5427631], [83.9487595, 27.5400994], [83.9462676, 27.5412888], [83.9399784, 27.5423086], [83.9313359, 27.5455028], [83.926186, 27.5452745], [83.9220662, 27.5427631], [83.9193619, 27.5379668]]]]}, "properties": {"admin_level": "6", "boundary": "administrative", "int_name": "Chitwan", "name": "चितवन जिल्ला", "name:en": "Chitwan", "name:fa": "ناحیه چیتوان", "name:ja": "チトワン", "name:ne": "चितवन जिल्ला", "name:pl": "Chitwan", "name:ur": "چتوان ضلع", "wikidata": "Q28583", "wikipedia": "ne:चितवन जिल्ला", "osm_id": 4589410}}, {"type": "Feature", "geometry": {"type": "MultiPolygon", "coordinates": [[[[83.8756767, 27.5103769], [83.8786466, 27.509388], [83.8806222, 27.5080587], [83.8841306, 27.5082098], [83.886549, 27.5091463], [83.8929526, 27.5056116], [83.8973807, 27.5010797], [83.8977553, 27.4996295], [83.8973915, 27.4965975], [83.8974773, 27.4952652], [83.8997304, 27.4927146], [83.9029275, 27.4911347], [83.9079916, 27.4911728], [83.9084207, 27.4890599], [83.9087426, 27.4875752], [83.9097725, 27.4857858], [83.9121329, 27.4827591], [83.9131414, 27.4804367], [83.9106738, 27.4771814], [83.9081418, 27.4730693], [83.9090644, 27.4704991], [83.9105879, 27.4688428], [83.9121543, 27.4673197], [83.9124762, 27.4649208], [83.9152657, 27.4609986], [83.9168107, 27.4588852], [83.9267026, 27.4589804], [83.9266561, 27.4593915], [83.9274107, 27.4631311], [83.9337193, 27.4659489], [83.9360582, 27.4694711], [83.9389764, 27.4681384], [83.9418732, 27.4672245], [83.9442287, 27.4663754], [83.9431799, 27.4620568], [83.9394668, 27.4548108], [83.9340205, 27.4485451], [83.9349148, 27.4483344], [83.9355509, 27.448319], [83.9363384, 27.448149], [83.937829, 27.447938], [83.9399062, 27.4477228], [83.9413624, 27.4483914], [83.9422101, 27.4485846], [83.9427432, 27.4480981], [83.9427977, 27.4474259], [83.9438576, 27.4461899], [83.9450907, 27.4449456], [83.9457355, 27.4437098], [83.9459362, 27.4429405], [83.9468842, 27.4423416], [83.9471099, 27.442395], [83.948201, 27.4422322], [83.9489566, 27.4422794], [83.9498611, 27.4424683], [83.9513721, 27.4428649], [83.952266, 27.4429688], [83.9530428, 27.442931], [83.9555328, 27.4424683], [83.9565437, 27.4423549], [83.9575333, 27.4423833], [83.9582144, 27.4426666], [83.9590231, 27.4433749], [83.9594807, 27.4438848], [83.960183, 27.4443759], [83.9610769, 27.4446214], [83.9623432, 27.4449142], [83.9655366, 27.4463546], [83.9664471, 27.4467485], [83.9671995, 27.4468954], [83.9677865, 27.446842], [83.9685539, 27.4465148], [83.9699159, 27.4455733], [83.9701567, 27.4453129], [83.970262, 27.4449055], [83.9700814, 27.444378], [83.9700438, 27.4438505], [83.9705479, 27.4430759], [83.9712176, 27.4426752], [83.9719324, 27.4425082], [83.9726999, 27.4425817], [83.9733395, 27.4430491], [83.9745359, 27.4431827], [83.9762063, 27.4430491], [83.9776661, 27.4426952], [83.97811, 27.4423947], [83.9783132, 27.4418138], [83.977809, 27.4407186], [83.9773199, 27.439944], [83.9771394, 27.4394565], [83.9773576, 27.4391626], [83.977636, 27.4390224], [83.9781251, 27.4390224], [83.9788248, 27.4396368], [83.9800814, 27.4410458], [83.9821958, 27.4427754], [83.983791, 27.4437369], [83.9851303, 27.4441309], [83.9868459, 27.4436969], [83.9876736, 27.4437102], [83.9882153, 27.4439306], [83.9892161, 27.4443914], [83.9907436, 27.4444247], [83.9919926, 27.4444515], [83.9933621, 27.4451326], [83.9944305, 27.4459472], [83.995025, 27.4462878], [83.9957398, 27.4464147], [83.9961386, 27.4463212], [83.9966202, 27.4460941], [83.9968158, 27.4458337], [83.9968835, 27.4451125], [83.9969061, 27.4447319], [83.9969061, 27.4444715], [83.9972823, 27.4435299], [83.9975833, 27.4432161], [83.9976585, 27.4428288], [83.9974178, 27.4423747], [83.9972372, 27.441934], [83.9975306, 27.4416067], [83.9979294, 27.4413997], [83.9981401, 27.4413463], [83.9985163, 27.4416001], [83.9985991, 27.4418939], [83.9986518, 27.4422612], [83.9990355, 27.4423547], [83.9994644, 27.4422478], [84.0003899, 27.4409456], [84.0008865, 27.4404915], [84.0012026, 27.4405049], [84.0014283, 27.4408388], [84.0015186, 27.4414264], [84.0019625, 27.4420742], [84.0023839, 27.4424281], [84.0029031, 27.4425617], [84.0031363, 27.4424415], [84.0032567, 27.4420608], [84.0033621, 27.4415066], [84.0036405, 27.441373], [84.0040393, 27.4416201], [84.004408, 27.4419139], [84.0047842, 27.4423613], [84.0049497, 27.4424815], [84.0056495, 27.4422011], [84.0059129, 27.4410525], [84.0056871, 27.440565], [84.0051604, 27.4401577], [84.0051303, 27.4400041], [84.0052883, 27.4397703], [84.005642, 27.4398304], [84.0063794, 27.4400975], [84.0072071, 27.4403847], [84.0082003, 27.4406184], [84.0085088, 27.4404782], [84.0087722, 27.4401577], [84.0087345, 27.4398438], [84.0085013, 27.4392094], [84.0084035, 27.4385216], [84.0084411, 27.4380942], [84.0087646, 27.4376534], [84.0092763, 27.437413], [84.0105479, 27.4372527], [84.0114734, 27.437413], [84.0128354, 27.43758], [84.0132041, 27.4375599], [84.0139264, 27.4373529], [84.0142725, 27.4370257], [84.0146111, 27.4361041], [84.0151303, 27.4352293], [84.0156269, 27.4346816], [84.0161837, 27.4344746], [84.0168534, 27.434508], [84.0175156, 27.4347551], [84.0180573, 27.4350489], [84.0183207, 27.4356767], [84.0183357, 27.4361642], [84.0185765, 27.4363445], [84.0188775, 27.4363445], [84.0190957, 27.4361508], [84.0193139, 27.43565], [84.019514, 27.4353127], [84.0202749, 27.4350813], [84.0205515, 27.4347413], [84.0207324, 27.4342407], [84.0208122, 27.4338677], [84.0209878, 27.4336599], [84.0212858, 27.4336363], [84.021621, 27.4335985], [84.022036, 27.433301], [84.0222914, 27.433098], [84.023297, 27.4326871], [84.0238929, 27.4326729], [84.0241589, 27.4328382], [84.02426, 27.4331074], [84.0245116, 27.4336504], [84.0248148, 27.434151], [84.0252192, 27.4345099], [84.0255597, 27.4345429], [84.0260865, 27.4342879], [84.0263153, 27.4340802], [84.0263259, 27.433844], [84.0264217, 27.4335654], [84.0265813, 27.4333718], [84.0268792, 27.4333718], [84.0270232, 27.4334562], [84.0271453, 27.4335277], [84.0272517, 27.4339715], [84.0272357, 27.4347035], [84.0273953, 27.4354921], [84.0271123, 27.4361316], [84.0269242, 27.4367994], [84.0268113, 27.436933], [84.0264878, 27.4370599], [84.025931, 27.4372068], [84.0255848, 27.437741], [84.025472, 27.4381751], [84.0257203, 27.4387027], [84.0262545, 27.4391167], [84.0275713, 27.4397645], [84.028098, 27.4398313], [84.0286247, 27.4397378], [84.0293546, 27.4393438], [84.0297985, 27.438903], [84.0301748, 27.4386159], [84.0304306, 27.4386225], [84.0309046, 27.4388162], [84.031341, 27.4392703], [84.0313862, 27.4399448], [84.0312959, 27.4404389], [84.0312658, 27.440853], [84.0314238, 27.4413805], [84.0317925, 27.4416476], [84.0326352, 27.4417011], [84.0332748, 27.441681], [84.0344863, 27.4412731], [84.0362223, 27.4414107], [84.0373077, 27.4429595], [84.039585, 27.443375], [84.040415, 27.4429784], [84.0424794, 27.4429784], [84.0435435, 27.4436583], [84.0440117, 27.4434128], [84.0454802, 27.4438094], [84.0460548, 27.4433561], [84.0471189, 27.4433183], [84.0480553, 27.4430161], [84.0518649, 27.4434317], [84.0525885, 27.446227], [84.0537377, 27.4473413], [84.053867, 27.448737], [84.0542583, 27.4496184], [84.0555525, 27.4506601], [84.0562297, 27.4506734], [84.0582763, 27.4523561], [84.0582162, 27.454012], [84.0598565, 27.4547598], [84.0611657, 27.4558816], [84.0611958, 27.457257], [84.0586225, 27.4591532], [84.0585924, 27.4609292], [84.0582312, 27.4613432], [84.0581861, 27.4621711], [84.0606541, 27.4622245], [84.0605788, 27.4629589], [84.0617978, 27.4647882], [84.0617827, 27.4660968], [84.0621289, 27.4670849], [84.0630017, 27.4682733], [84.0654998, 27.4690077], [84.0668241, 27.4701025], [84.0669897, 27.4722389], [84.0682237, 27.4733871], [84.0678475, 27.4767918], [84.0685999, 27.4781002], [84.0702402, 27.4808505], [84.0702854, 27.4815848], [84.0711281, 27.4820254], [84.0713839, 27.4818919], [84.0714592, 27.4809039], [84.0719709, 27.4806369], [84.0731748, 27.4806235], [84.0753719, 27.482733], [84.0765608, 27.4829733], [84.0777496, 27.484335], [84.0800521, 27.4844685], [84.0808949, 27.4837076], [84.0816323, 27.4836809], [84.0822192, 27.4833738], [84.0838683, 27.4832973], [84.0860805, 27.4848993], [84.0884733, 27.4853532], [84.0895869, 27.4861275], [84.0911068, 27.486982], [84.0910466, 27.4889711], [84.0947336, 27.4892381], [84.0959225, 27.4906532], [84.095787, 27.4922952], [84.0961633, 27.4940306], [84.0970511, 27.4955791], [84.0974424, 27.4980353], [84.0978186, 27.4984892], [84.0977735, 27.4997973], [84.0985259, 27.5009987], [84.0984888, 27.5027107], [84.0975099, 27.5046739], [84.0988719, 27.5055234], [84.0984463, 27.5079396], [84.0997019, 27.5087324], [84.0995317, 27.5124132], [84.0972309, 27.5163153], [84.0986036, 27.5173251], [84.1004126, 27.5174384], [84.102211, 27.5182783], [84.1027537, 27.5189012], [84.1034206, 27.5189373], [84.1056177, 27.5211661], [84.1074312, 27.521182], [84.1081655, 27.521635], [84.1089104, 27.5216067], [84.1093147, 27.5213236], [84.1093999, 27.5203798], [84.1105704, 27.5198231], [84.1128902, 27.5198419], [84.1141458, 27.5190586], [84.1156675, 27.5192663], [84.1173169, 27.5188322], [84.1173499, 27.5145772], [84.1177543, 27.513926], [84.1177968, 27.5133786], [84.1190844, 27.5126236], [84.1203081, 27.5127274], [84.1208083, 27.5121706], [84.1225322, 27.5119158], [84.1236282, 27.5111513], [84.1255117, 27.5116138], [84.128289, 27.5116704], [84.1288211, 27.5119913], [84.1302683, 27.5120385], [84.1333649, 27.5146716], [84.134131, 27.5146338], [84.1353441, 27.5150302], [84.135972, 27.5157191], [84.1369513, 27.5158871], [84.1378618, 27.5173419], [84.1389302, 27.517769], [84.1393516, 27.5173419], [84.1397128, 27.5173152], [84.1403298, 27.5177957], [84.1419551, 27.517809], [84.1426925, 27.5170616], [84.1440017, 27.5171817], [84.1455518, 27.5187032], [84.1494344, 27.516461], [84.150864, 27.5165811], [84.1509055, 27.5142474], [84.1504842, 27.5138336], [84.1504992, 27.5130995], [84.150138, 27.5127792], [84.1500628, 27.5122587], [84.1505443, 27.5117515], [84.1504089, 27.5098428], [84.1493254, 27.5092289], [84.149205, 27.508121], [84.1497016, 27.5076005], [84.1496866, 27.5068797], [84.1488589, 27.5059453], [84.1492652, 27.504437], [84.1486322, 27.5029103], [84.1486641, 27.5023156], [84.1495048, 27.5017682], [84.1497602, 27.500947], [84.145055, 27.4974579], [84.1446932, 27.4966462], [84.1456935, 27.4952397], [84.1458638, 27.4942203], [84.1456616, 27.4935784], [84.1470449, 27.4913601], [84.1474812, 27.4904067], [84.1489996, 27.4889144], [84.1491166, 27.4875834], [84.1486378, 27.4871209], [84.1489145, 27.4862902], [84.1520962, 27.4863846], [84.1539903, 27.4845437], [84.1560653, 27.4846193], [84.1567357, 27.4842794], [84.1577998, 27.4842605], [84.1593641, 27.4848741], [84.1622585, 27.4846004], [84.1641846, 27.4840812], [84.1669921, 27.4819237], [84.1672901, 27.4803188], [84.1680243, 27.4796674], [84.1700249, 27.4796202], [84.1713869, 27.4787989], [84.1713231, 27.4762876], [84.173164, 27.4761649], [84.1759946, 27.474305], [84.177612, 27.4741256], [84.1780909, 27.474541], [84.1786229, 27.4745316], [84.1796126, 27.4749376], [84.1811981, 27.473984], [84.1823593, 27.4741099], [84.1839093, 27.4724543], [84.1845263, 27.4724276], [84.1852788, 27.4728415], [84.1863472, 27.4728415], [84.1880628, 27.4725344], [84.1889657, 27.4718801], [84.1895075, 27.4709054], [84.1908017, 27.4695302], [84.1913886, 27.4696103], [84.1923644, 27.4707938], [84.1932795, 27.4726443], [84.1941521, 27.4732108], [84.1948332, 27.4729275], [84.1953439, 27.4722478], [84.1960362, 27.4726138], [84.1988654, 27.4722666], [84.2026878, 27.470878], [84.2045238, 27.4704241], [84.2057578, 27.4695695], [84.2071122, 27.4679405], [84.2072326, 27.466899], [84.2087977, 27.465911], [84.2087977, 27.4651365], [84.2059685, 27.462733], [84.2041325, 27.4592077], [84.207691, 27.4568717], [84.2076458, 27.4559102], [84.2072245, 27.4554294], [84.2072846, 27.4544546], [84.2077813, 27.4541475], [84.2081575, 27.4534664], [84.2075706, 27.452999], [84.2075555, 27.4494601], [84.2072696, 27.4482982], [84.2063065, 27.4468559], [84.2063065, 27.4458676], [84.2076007, 27.4441982], [84.2075405, 27.44329], [84.2078114, 27.442836], [84.2091056, 27.4426623], [84.209542, 27.4421148], [84.2106255, 27.4421815], [84.213846, 27.4419278], [84.2156217, 27.4423017], [84.2162387, 27.4418877], [84.2170062, 27.4419144], [84.2183907, 27.440886], [84.2193087, 27.4409261], [84.2210544, 27.4428894], [84.2209039, 27.4460412], [84.2203922, 27.4472031], [84.2202418, 27.4480578], [84.221235, 27.4484318], [84.2233719, 27.4507688], [84.2249972, 27.4513965], [84.2264419, 27.45153], [84.2278866, 27.4526384], [84.228925, 27.4538003], [84.2296624, 27.4546549], [84.2299032, 27.4553627], [84.2309114, 27.4563909], [84.2318746, 27.4563642], [84.2336202, 27.4544279], [84.2394592, 27.4527853], [84.240618, 27.453827], [84.2421379, 27.4548152], [84.2442158, 27.4551946], [84.2451416, 27.4544392], [84.2457481, 27.4536082], [84.2464717, 27.4532116], [84.247206, 27.4533061], [84.2483233, 27.453731], [84.2508027, 27.4537593], [84.2511964, 27.453476], [84.2523669, 27.4534288], [84.2540802, 27.4528339], [84.2539481, 27.4554402], [84.2548433, 27.4584189], [84.257547, 27.461808], [84.2610231, 27.4646639], [84.2646709, 27.4661871], [84.2666621, 27.4664417], [84.2675849, 27.4672835], [84.2678695, 27.4677503], [84.2681628, 27.4683089], [84.2683956, 27.468615], [84.2684854, 27.4697938], [84.2691207, 27.4714968], [84.2688166, 27.4727561], [84.2686544, 27.4742852], [84.2685462, 27.4760302], [84.2677081, 27.4771335], [84.2677217, 27.4782428], [84.2665254, 27.4796759], [84.2655994, 27.4812169], [84.2647478, 27.4815347], [84.2647208, 27.4824941], [84.2635042, 27.4832976], [84.2621998, 27.4822722], [84.2612535, 27.4825541], [84.2602195, 27.4848025], [84.2602486, 27.485809], [84.2606573, 27.4869723], [84.2609213, 27.4881357], [84.2615855, 27.4888231], [84.2630417, 27.4891555], [84.2636037, 27.4894274], [84.2639613, 27.4924339], [84.2630842, 27.4940579], [84.2612704, 27.4954327], [84.2600357, 27.4966111], [84.2592693, 27.4982426], [84.2589883, 27.4997835], [84.2593374, 27.5008259], [84.2589968, 27.5021552], [84.2590223, 27.5036734], [84.2592182, 27.505116], [84.2593204, 27.5066871], [84.2592437, 27.5080239], [84.2592182, 27.5100631], [84.2594907, 27.5115434], [84.2592281, 27.514068], [84.2594209, 27.5146873], [84.2597213, 27.5142342], [84.2598206, 27.5140391], [84.2599247, 27.513907], [84.2603504, 27.5137224], [84.2607606, 27.5136196], [84.2611395, 27.5131438], [84.2614434, 27.5113959], [84.2627951, 27.5099812], [84.2637414, 27.5093817], [84.265796, 27.5093337], [84.2666071, 27.5095136], [84.2687158, 27.5089381], [84.2700946, 27.5075833], [84.2708245, 27.5061566], [84.2707029, 27.502128], [84.2719735, 27.5008211], [84.274704, 27.5007852], [84.277749, 27.5020011], [84.2802192, 27.5039025], [84.2840176, 27.5038905], [84.2855991, 27.5040584], [84.2868089, 27.5040944], [84.288431, 27.5035668], [84.289918, 27.5026796], [84.2919524, 27.5004255], [84.2929932, 27.4994003], [84.2933969, 27.4992119], [84.2946951, 27.499545], [84.2955963, 27.4994736], [84.2968569, 27.4989407], [84.2974256, 27.4983078], [84.2975597, 27.4961855], [84.2986825, 27.496018], [84.3000075, 27.4956754], [84.3013111, 27.4947523], [84.3026898, 27.4933009], [84.3036714, 27.4918305], [84.3039128, 27.4907313], [84.3038056, 27.4900317], [84.303945, 27.4883566], [84.3064684, 27.4890555], [84.3093476, 27.4893134], [84.3126864, 27.4895712], [84.3145451, 27.4877485], [84.3160387, 27.4865493], [84.3180461, 27.4863395], [84.3199859, 27.4861236], [84.3218107, 27.4854521], [84.3231089, 27.4847858], [84.3244715, 27.4859089], [84.3258126, 27.4861088], [84.3269069, 27.485433], [84.3281944, 27.4845003], [84.3293745, 27.484348], [84.3315096, 27.4828727], [84.3344922, 27.4805979], [84.3360801, 27.4803599], [84.337271, 27.4791511], [84.3378932, 27.4784182], [84.3392923, 27.4775332], [84.3398512, 27.4772308], [84.3400059, 27.4772214], [84.3400767, 27.477179], [84.3402359, 27.4771309], [84.3405088, 27.4770186], [84.3407746, 27.4766619], [84.340857, 27.4765673], [84.3415305, 27.4760397], [84.3421722, 27.4754717], [84.3426501, 27.4751716], [84.3428424, 27.4750139], [84.3429947, 27.4749169], [84.3432844, 27.4747551], [84.3435161, 27.474639], [84.343825, 27.4745248], [84.3439922, 27.4745097], [84.3440908, 27.4744332], [84.3443003, 27.4743566], [84.3447194, 27.474302], [84.3450028, 27.4741817], [84.3453726, 27.4739903], [84.3454835, 27.4739411], [84.3455574, 27.473799], [84.3457053, 27.4735366], [84.3459456, 27.4731703], [84.3467221, 27.47306], [84.3475536, 27.4725935], [84.3486157, 27.4723413], [84.3496564, 27.4716797], [84.3504504, 27.4713894], [84.3508741, 27.4710181], [84.3511048, 27.4695189], [84.3506971, 27.4677102], [84.3513891, 27.4665964], [84.3531487, 27.4656112], [84.3540939, 27.4654978], [84.3570317, 27.465392], [84.3587774, 27.4644703], [84.3594324, 27.4639271], [84.3606115, 27.4628276], [84.3612778, 27.4626429], [84.3615689, 27.4624213], [84.3619469, 27.4622303], [84.3643186, 27.4625242], [84.3657649, 27.4624043], [84.3675222, 27.4610489], [84.3685147, 27.4603685], [84.3691849, 27.4600174], [84.3709151, 27.4580743], [84.3743621, 27.4591538], [84.3753894, 27.4577624], [84.3775116, 27.4567189], [84.3795393, 27.4555194], [84.3814182, 27.4545358], [84.3822698, 27.4537201], [84.3832701, 27.4521487], [84.3851085, 27.4504214], [84.3866224, 27.4501215], [84.3889069, 27.4497376], [84.3919078, 27.448754], [84.3927335, 27.4481843], [84.3946788, 27.4483221], [84.3961658, 27.4468466], [84.397977, 27.4459158], [84.4004295, 27.4447974], [84.4027457, 27.4442079], [84.4054081, 27.4440506], [84.4059816, 27.4445404], [84.4098816, 27.4434975], [84.4124533, 27.4447974], [84.4131686, 27.4438452], [84.4144459, 27.4434522], [84.4154678, 27.4426511], [84.4160639, 27.4431197], [84.417801, 27.4427418], [84.4188399, 27.4416082], [84.4201513, 27.4410036], [84.4217863, 27.4397793], [84.4240344, 27.4394619], [84.426589, 27.4394619], [84.429331, 27.439084], [84.4310852, 27.4397491], [84.4338272, 27.4387364], [84.4366203, 27.4368319], [84.4388173, 27.4349273], [84.4411505, 27.4332041], [84.4433645, 27.4315716], [84.4457489, 27.4295612], [84.4479288, 27.4282158], [84.4499725, 27.4267797], [84.4517949, 27.4246936], [84.4530041, 27.4219574], [84.454622, 27.4202491], [84.4552181, 27.4193572], [84.4689791, 27.419463], [84.4727259, 27.420098], [84.4773583, 27.4204608], [84.4848009, 27.4168476], [84.4882581, 27.4150637], [84.4924478, 27.4152451], [84.4966204, 27.4135367], [84.4988173, 27.412675], [84.5017637, 27.4121912], [84.5053232, 27.4080637], [84.5070092, 27.4066425], [84.5092744, 27.4056597], [84.5113521, 27.4045106], [84.514026, 27.4041326], [84.51624, 27.4025601], [84.517347, 27.4016378], [84.518999, 27.4016681], [84.5229332, 27.4008213], [84.5242957, 27.3996419], [84.5260669, 27.3991127], [84.5271398, 27.3982055], [84.52995, 27.3951209], [84.5330792, 27.3952946], [84.5352582, 27.3943004], [84.5361954, 27.3938907], [84.5381909, 27.3937192], [84.5416242, 27.3926523], [84.5461088, 27.3914521], [84.5487052, 27.3908043], [84.5525676, 27.3875464], [84.5539838, 27.3862889], [84.5558935, 27.3835262], [84.5598417, 27.376057], [84.5676554, 27.3756759], [84.5789605, 27.3759237], [84.5807717, 27.3759415], [84.5821074, 27.3760273], [84.5840601, 27.3760844], [84.5862112, 27.3760225], [84.5878473, 27.3749269], [84.5903522, 27.3745497], [84.5908964, 27.3744677], [84.5927504, 27.3741885], [84.5939038, 27.3737788], [84.594119, 27.3736475], [84.595391, 27.3733598], [84.5959422, 27.3732119], [84.5978627, 27.3727927], [84.6005235, 27.3721734], [84.6014515, 27.3720043], [84.6043027, 27.3714469], [84.606081, 27.371123], [84.6069118, 27.3708875], [84.6092728, 27.3704275], [84.6279678, 27.3668783], [84.6354351, 27.3652014], [84.6529016, 27.3618093], [84.656764, 27.3605896], [84.6629009, 27.360399], [84.6680293, 27.3589126], [84.6922765, 27.3533857], [84.6976838, 27.348926], [84.7062669, 27.3432843], [84.705888, 27.3464018], [84.7058129, 27.3504328], [84.7066927, 27.3532821], [84.7069824, 27.3537872], [84.7081411, 27.3549021], [84.7102654, 27.3560551], [84.7112846, 27.3568746], [84.7123039, 27.3581419], [84.7128081, 27.3590757], [84.7133446, 27.3598666], [84.713763, 27.3607242], [84.7144818, 27.3618009], [84.7163486, 27.3634494], [84.717797, 27.3649834], [84.7194493, 27.3661363], [84.7211015, 27.3666032], [84.7218311, 27.3669557], [84.7239017, 27.3688899], [84.7254574, 27.3702143], [84.7257668, 27.3705206], [84.7259295, 27.3706907], [84.7264123, 27.3712623], [84.7273993, 27.3729964], [84.7274744, 27.373206], [84.7278392, 27.3744541], [84.7278929, 27.3746923], [84.7282898, 27.3765691], [84.7283902, 27.3776669], [84.7285044, 27.3780935], [84.7285044, 27.3791986], [84.7284722, 27.3794273], [84.728322, 27.3798179], [84.7278929, 27.3803705], [84.7271311, 27.3807134], [84.7262299, 27.3809802], [84.7255111, 27.3814946], [84.7253072, 27.3824568], [84.7254145, 27.3830856], [84.7255022, 27.3832379], [84.725672, 27.3844669], [84.7256613, 27.3848861], [84.7255647, 27.3850671], [84.7246457, 27.3856962], [84.7233331, 27.3862103], [84.7231722, 27.387001], [84.7230756, 27.387182], [84.7228718, 27.3872677], [84.7223461, 27.3872772], [84.7216272, 27.3865723], [84.7215199, 27.3864008], [84.721459, 27.3855547], [84.7214663, 27.3853624], [84.7213594, 27.3847589], [84.7212088, 27.383781], [84.7210801, 27.3835905], [84.7208547, 27.3835143], [84.720742, 27.3833971], [84.7205865, 27.3832571], [84.7204631, 27.3830788], [84.719857, 27.3822091], [84.7197175, 27.3820376], [84.7195351, 27.3818947], [84.7192883, 27.3819043], [84.7191884, 27.3819999], [84.7189557, 27.3826283], [84.7189494, 27.3828842], [84.7189557, 27.3830951], [84.7197926, 27.3843907], [84.7199535, 27.385029], [84.7197819, 27.3851719], [84.7195458, 27.3851814], [84.7193313, 27.3851338], [84.7186661, 27.3848861], [84.7182155, 27.3848194], [84.7175395, 27.3850671], [84.7174357, 27.3850418], [84.7171962, 27.3847146], [84.7170353, 27.3839335], [84.7167778, 27.3838954], [84.7166788, 27.3839277], [84.7163808, 27.3842669], [84.7157907, 27.385191], [84.7155654, 27.3852195], [84.7152114, 27.3850957], [84.714514, 27.3842097], [84.7143316, 27.3840383], [84.7140849, 27.3839335], [84.7135699, 27.3839144], [84.7133338, 27.3839716], [84.7131622, 27.384143], [84.7128725, 27.3845241], [84.7127867, 27.3847242], [84.712733, 27.3849147], [84.7127352, 27.3852541], [84.7127008, 27.3854768], [84.7128189, 27.3859245], [84.7129261, 27.3861055], [84.7132802, 27.3863437], [84.7146964, 27.3870677], [84.7152114, 27.3874773], [84.7154367, 27.3878584], [84.715544, 27.3882775], [84.7155332, 27.3897541], [84.7156942, 27.3901351], [84.7161662, 27.3906209], [84.7171962, 27.3911163], [84.7173357, 27.3912687], [84.7177219, 27.3920213], [84.7178185, 27.392469], [84.7178292, 27.392669], [84.7176468, 27.3927929], [84.7170675, 27.3929643], [84.7157693, 27.3929834], [84.7144067, 27.3928595], [84.7143286, 27.3928938], [84.7141063, 27.3930024], [84.7136772, 27.3935549], [84.7133767, 27.394155], [84.7131514, 27.3944218], [84.7133016, 27.395441], [84.7132909, 27.3956506], [84.7131729, 27.3958316], [84.7125721, 27.3961268], [84.7121215, 27.3962126], [84.7118962, 27.3962126], [84.7115203, 27.3960061], [84.710952, 27.3956601], [84.7105443, 27.3954982], [84.7100937, 27.3953457], [84.7097476, 27.3952988], [84.7092783, 27.3952124], [84.7083557, 27.3955267], [84.7081625, 27.3959078], [84.7081411, 27.3960983], [84.7081518, 27.3964983], [84.7082484, 27.3967174], [84.7085059, 27.3970699], [84.7086668, 27.3972318], [84.7099435, 27.3982034], [84.7101152, 27.3983558], [84.7104846, 27.3989062], [84.7107053, 27.3992893], [84.7108018, 27.3998989], [84.7107696, 27.4003657], [84.7103834, 27.4011848], [84.7101903, 27.4020421], [84.7102332, 27.4028231], [84.7106194, 27.4037375], [84.7110271, 27.4040042], [84.7131514, 27.4047853], [84.713881, 27.4052043], [84.7144818, 27.4057949], [84.714632, 27.4061949], [84.7149753, 27.4080808], [84.7156834, 27.4084237], [84.7160911, 27.408538], [84.7162413, 27.4088999], [84.7163272, 27.4100809], [84.7161984, 27.4102143], [84.7159409, 27.4113953], [84.7162843, 27.4117381], [84.7167349, 27.4117762], [84.7171426, 27.4119477], [84.717443, 27.4122144], [84.7178721, 27.4134334], [84.718194, 27.4136811], [84.71843, 27.4140049], [84.7182369, 27.4148049], [84.7180438, 27.4151859], [84.7170353, 27.4161382], [84.7162199, 27.4165382], [84.7162199, 27.4173763], [84.7163057, 27.4177573], [84.7162413, 27.4181382], [84.7159624, 27.418462], [84.7151685, 27.4183858], [84.7149539, 27.4192049], [84.7150397, 27.4196239], [84.716177, 27.4202906], [84.716413, 27.4206144], [84.7166061, 27.4214143], [84.7169494, 27.4216429], [84.7173571, 27.4216238], [84.717679, 27.4213572], [84.7181296, 27.421281], [84.7185373, 27.4214905], [84.7184086, 27.4219095], [84.7177434, 27.4225], [84.7178507, 27.4232618], [84.717679, 27.4236237], [84.7185588, 27.4236999], [84.7187948, 27.4240808], [84.7189021, 27.4244808], [84.7189021, 27.4252998], [84.7187304, 27.4256807], [84.7189235, 27.4260616], [84.7192454, 27.4263283], [84.7194814, 27.4266902], [84.7188055, 27.4269377], [84.7188699, 27.4277567], [84.7201037, 27.4302421], [84.7201359, 27.4314039], [84.7189665, 27.4314134], [84.717915, 27.4315753], [84.7177327, 27.4317181], [84.7176514, 27.432298], [84.7205723, 27.4392258], [84.7249, 27.4447888], [84.7296989, 27.4450444], [84.7315052, 27.4468309], [84.7318578, 27.4493559], [84.7348793, 27.4505402], [84.7369945, 27.4542494], [84.7365916, 27.455523], [84.7375484, 27.4566848], [84.7359873, 27.4581595], [84.7366671, 27.4629632], [84.7389585, 27.4676103], [84.7372714, 27.468437], [84.7378758, 27.4698891], [84.7404945, 27.4705147], [84.7407463, 27.471319], [84.7373216, 27.4742196], [84.7373984, 27.4789946], [84.7364725, 27.4803392], [84.734552, 27.4824217], [84.7347943, 27.4858186], [84.7353586, 27.4872452], [84.7352645, 27.488562], [84.7353781, 27.4929792], [84.7362516, 27.496852], [84.7364521, 27.4990239], [84.7361879, 27.5011153], [84.7350548, 27.5027175], [84.7275016, 27.5091799], [84.7281563, 27.5152096], [84.7262678, 27.5232264], [84.7239009, 27.53419], [84.7206779, 27.5378293], [84.7197714, 27.5417588], [84.7197966, 27.5508453], [84.7185376, 27.5579443], [84.7152592, 27.5633736], [84.7144092, 27.5661364], [84.7142215, 27.566401], [84.7132549, 27.5661349], [84.7122075, 27.5672672], [84.710811, 27.5673503], [84.708013, 27.5656729], [84.7061033, 27.564503], [84.7050787, 27.5639181], [84.7019566, 27.5647503], [84.7008301, 27.5650594], [84.7001756, 27.5653971], [84.6984858, 27.5665669], [84.6970642, 27.5675085], [84.6960718, 27.5680601], [84.6949077, 27.568431], [84.692247, 27.5692489], [84.6891249, 27.5704805], [84.6856702, 27.5718596], [84.6839804, 27.5725918], [84.6808963, 27.573373], [84.6800268, 27.5735334], [84.6788272, 27.5739182], [84.6764346, 27.5750205], [84.6753667, 27.5758593], [84.6750964, 27.5771893], [84.6750423, 27.5789506], [84.674461, 27.579969], [84.6720414, 27.5810114], [84.6707947, 27.5810403], [84.6699732, 27.5810593], [84.6690676, 27.5804123], [84.6679186, 27.5800529], [84.6653638, 27.5807837], [84.6639444, 27.5806759], [84.6611733, 27.5808676], [84.6597541, 27.5813556], [84.6586503, 27.5817352], [84.6570517, 27.5823438], [84.6554317, 27.5822677], [84.654745, 27.5817922], [84.6558393, 27.5804514], [84.6560968, 27.5789679], [84.6542837, 27.577123], [84.6527387, 27.5750117], [84.6500029, 27.5743175], [84.647503, 27.5741939], [84.6452822, 27.5724155], [84.6440805, 27.5724725], [84.6434905, 27.5722253], [84.6413231, 27.5715663], [84.6389874, 27.5709308], [84.6364392, 27.5702021], [84.6345854, 27.5696324], [84.6330297, 27.5691791], [84.6294785, 27.5687702], [84.6283948, 27.5685514], [84.6256986, 27.5684148], [84.6239717, 27.568369], [84.6231956, 27.5681217], [84.6219892, 27.5676456], [84.619515, 27.5667886], [84.6192539, 27.567296], [84.6178806, 27.5669631], [84.6162408, 27.5665274], [84.6156259, 27.5665656], [84.6149608, 27.566864], [84.6129272, 27.5664396], [84.6088982, 27.566486], [84.6070359, 27.5663868], [84.6061783, 27.5663823], [84.6022582, 27.5664431], [84.5987341, 27.5660867], [84.5936413, 27.5655047], [84.5917274, 27.5654824], [84.589916, 27.5652308], [84.5884696, 27.5646316], [84.5881522, 27.5645176], [84.5874018, 27.5642482], [84.5862257, 27.5642601], [84.5844414, 27.564332], [84.583752, 27.5651349], [84.5828869, 27.565746], [84.5817244, 27.5661654], [84.5800347, 27.5656741], [84.5790255, 27.5654037], [84.5769978, 27.565212], [84.5734563, 27.5655475], [84.5726994, 27.5653633], [84.5706987, 27.5648765], [84.5685089, 27.5631509], [84.5677309, 27.5609256], [84.5676485, 27.56069], [84.5672305, 27.5587315], [84.5664468, 27.5550591], [84.566672, 27.5538265], [84.566705, 27.5536461], [84.5669404, 27.5523577], [84.5643225, 27.5497514], [84.5611897, 27.5496562], [84.5560828, 27.5482294], [84.5527139, 27.5494279], [84.5482159, 27.5507874], [84.5433155, 27.5519582], [84.5397964, 27.5511592], [84.5355049, 27.5497133], [84.534329, 27.54974], [84.5304838, 27.5498275], [84.5288101, 27.5499797], [84.5269632, 27.5501286], [84.5250252, 27.5497999], [84.5194289, 27.5493085], [84.514024, 27.5493537], [84.5091268, 27.5509653], [84.5053724, 27.5517703], [84.5029922, 27.5526365], [84.5025138, 27.5528179], [84.501493, 27.55244], [84.501273, 27.5525922], [84.5006937, 27.5524828], [84.5003915, 27.5525628], [84.4999105, 27.5529204], [84.4994646, 27.5533441], [84.4991648, 27.5535815], [84.4988376, 27.5537099], [84.498328, 27.5542283], [84.4978076, 27.5549559], [84.4974643, 27.5557502], [84.4974846, 27.5574304], [84.4970781, 27.5583278], [84.4964669, 27.559181], [84.4962389, 27.5601217], [84.4957715, 27.5661857], [84.4942575, 27.5712424], [84.4931721, 27.573932], [84.4927696, 27.5742324], [84.4920613, 27.5750701], [84.4918512, 27.5757294], [84.4916251, 27.5768261], [84.4912988, 27.578099], [84.4911924, 27.5791913], [84.4904546, 27.5805992], [84.4884002, 27.5812794], [84.4869593, 27.5813584], [84.4854303, 27.5811658], [84.4843519, 27.5808467], [84.4828119, 27.5802248], [84.4812481, 27.5803229], [84.4807324, 27.5795197], [84.4780379, 27.5787828], [84.4742386, 27.575907], [84.4703682, 27.5741087], [84.4681578, 27.5731118], [84.4671071, 27.5724108], [84.4663214, 27.5713935], [84.4654735, 27.5699399], [84.4643889, 27.5672655], [84.4628535, 27.56521], [84.460552, 27.5648013], [84.4584161, 27.5656773], [84.454809, 27.5686554], [84.4471132, 27.5699505], [84.445059, 27.5683096], [84.4394081, 27.5594324], [84.4357516, 27.5572958], [84.4314303, 27.5583273], [84.4269012, 27.5617162], [84.4243251, 27.5651418], [84.4241173, 27.5667257], [84.4262364, 27.5663205], [84.4254885, 27.5693409], [84.403134, 27.5691199], [84.3976493, 27.5685306], [84.3948238, 27.5666889], [84.3930787, 27.5599112], [84.3899114, 27.5571141], [84.3860981, 27.5577747], [84.3780842, 27.5631111], [84.3764084, 27.5643864], [84.3730824, 27.56665], [84.3721383, 27.5667261], [84.3709927, 27.5659769], [84.3678468, 27.566631], [84.3646281, 27.5684381], [84.3613236, 27.5693701], [84.3576114, 27.5691228], [84.3566673, 27.568343], [84.3534057, 27.5664408], [84.3505733, 27.564044], [84.3466748, 27.5620803], [84.3427006, 27.5611575], [84.3388394, 27.5597291], [84.3363637, 27.5579743], [84.3333151, 27.5562833], [84.331016, 27.554713], [84.3303518, 27.5549244], [84.3294491, 27.5542147], [84.3264517, 27.5524481], [84.3239311, 27.5517535], [84.3212061, 27.5518743], [84.3186515, 27.5531728], [84.3170676, 27.5547281], [84.3157392, 27.5538523], [84.3141042, 27.5540939], [84.3121627, 27.5562682], [84.3110727, 27.5597862], [84.3107591, 27.5623721], [84.3102094, 27.5631129], [84.3095864, 27.5636983], [84.3086738, 27.5642836], [84.3076704, 27.5650118], [84.3063022, 27.5655498], [84.3039197, 27.5655536], [84.3012629, 27.565765], [84.2986912, 27.564693], [84.2965794, 27.5627756], [84.2949103, 27.5602391], [84.2934627, 27.5594087], [84.2914019, 27.5597258], [84.2884045, 27.560677], [84.2856966, 27.561915], [84.2830057, 27.5628662], [84.2821404, 27.5631509], [84.2806997, 27.5634895], [84.2801547, 27.5636722], [84.2776069, 27.5639831], [84.2751482, 27.5640579], [84.271646, 27.5631078], [84.2674016, 27.5617838], [84.2636589, 27.5605431], [84.2605511, 27.5604971], [84.2577976, 27.5617729], [84.2570365, 27.5630498], [84.2571089, 27.5641024], [84.2567581, 27.5652395], [84.2557467, 27.5658578], [84.2545417, 27.5658836], [84.252912, 27.5653573], [84.2501885, 27.5646914], [84.2480926, 27.5644672], [84.2477837, 27.5645106], [84.2472616, 27.5644867], [84.2470033, 27.564521], [84.2461463, 27.5645113], [84.2458905, 27.5644508], [84.2456567, 27.5643339], [84.2450645, 27.5638679], [84.2447242, 27.5637128], [84.2440421, 27.5635132], [84.2432758, 27.5631806], [84.2419937, 27.562973], [84.2411403, 27.5627534], [84.2404568, 27.5626327], [84.2397722, 27.5625662], [84.2394735, 27.5624855], [84.2392411, 27.5622919], [84.2391163, 27.562062], [84.2386453, 27.5607406], [84.2381405, 27.5601615], [84.2369105, 27.5594033], [84.235975, 27.5589739], [84.2353564, 27.5588126], [84.2296204, 27.5561304], [84.2280676, 27.5567986], [84.2274844, 27.5571154], [84.2266624, 27.5576018], [84.2262937, 27.5578822], [84.2261841, 27.5580155], [84.226108, 27.5587015], [84.2261612, 27.5593129], [84.2262412, 27.5596197], [84.2263855, 27.5599263], [84.2269469, 27.5608482], [84.2271515, 27.5613848], [84.2272298, 27.5617886], [84.2274607, 27.5620386], [84.2277791, 27.5622141], [84.2285465, 27.562452], [84.2288196, 27.5627787], [84.2288598, 27.5629321], [84.2288335, 27.5632367], [84.2285158, 27.5643023], [84.2283922, 27.5652929], [84.2282573, 27.5656722], [84.227927, 27.5662031], [84.2277733, 27.5664289], [84.2275347, 27.5665985], [84.2273833, 27.5666913], [84.2266271, 27.5670647], [84.2261717, 27.5673836], [84.2257152, 27.5677792], [84.2254986, 27.5679105], [84.2251511, 27.5681908], [84.2248055, 27.5683583], [84.2244152, 27.568641], [84.2239174, 27.5689397], [84.2226222, 27.5694968], [84.2221917, 27.5696261], [84.2214153, 27.5699207], [84.2209851, 27.5700116], [84.2205543, 27.5701589], [84.2202962, 27.5702135], [84.2198645, 27.5703991], [84.2191317, 27.5706576], [84.2190663, 27.570714], [84.2189543, 27.5710166], [84.2187031, 27.5719307], [84.2183689, 27.5726894], [84.2181728, 27.5728973], [84.218106, 27.5730486], [84.2178424, 27.5734258], [84.2176021, 27.5736901], [84.2171905, 27.5739525], [84.2167589, 27.5741382], [84.2149524, 27.5745359], [84.2144358, 27.5747014], [84.2136623, 27.574865], [84.2134034, 27.574976], [84.2130595, 27.5750667], [84.2127159, 27.5751192], [84.2121164, 27.5751314], [84.21186, 27.5751092], [84.2115195, 27.5749902], [84.2111389, 27.574738], [84.2109493, 27.5745623], [84.2108033, 27.5743505], [84.2105509, 27.5741004], [84.2102122, 27.5739046], [84.2099561, 27.5738644], [84.2096598, 27.5736685], [84.2088146, 27.5726638], [84.2079506, 27.5715838], [84.2066214, 27.5705702], [84.2052011, 27.570334], [84.2033262, 27.5693818], [84.2010051, 27.5689788], [84.1992358, 27.5687568], [84.1974559, 27.5679366], [84.1950405, 27.5656562], [84.1934488, 27.564033], [84.1919395, 27.5628077], [84.1900386, 27.5608263], [84.1887115, 27.5603889], [84.1865583, 27.5597518], [84.1818425, 27.5568202], [84.1787791, 27.5553344], [84.1770536, 27.5548177], [84.1745601, 27.5545784], [84.1725838, 27.5547821], [84.1707803, 27.5554927], [84.169599, 27.5565684], [84.1683401, 27.5578644], [84.1664036, 27.5592174], [84.1641453, 27.5604754], [84.1606551, 27.5623928], [84.1572862, 27.5640475], [84.1582088, 27.5653027], [84.1604995, 27.5669152], [84.1620546, 27.5678049], [84.1632837, 27.5701285], [84.1640998, 27.5711878], [84.165204, 27.571976], [84.1672308, 27.5728973], [84.1698069, 27.5736227], [84.1715564, 27.575749], [84.1725027, 27.5769951], [84.1733286, 27.5782353], [84.1744762, 27.5791039], [84.1759091, 27.5807334], [84.1756105, 27.5829309], [84.1764167, 27.58351], [84.1797734, 27.58391], [84.1828427, 27.5847297], [84.1878044, 27.5873948], [84.1903179, 27.5895536], [84.1937462, 27.5961622], [84.1957579, 27.5974758], [84.1985409, 27.5988479], [84.2014099, 27.5997065], [84.2020791, 27.5985476], [84.2029773, 27.5987198], [84.2066829, 27.6022755], [84.2068516, 27.6048751], [84.2100535, 27.6067801], [84.2109686, 27.6074031], [84.2128059, 27.6086533], [84.2144126, 27.6097134], [84.2162856, 27.6107955], [84.218721, 27.6122895], [84.2212955, 27.6134183], [84.2238644, 27.6144928], [84.2269296, 27.6152289], [84.2302055, 27.6170618], [84.2322959, 27.6185618], [84.235752, 27.6206347], [84.2376084, 27.6220682], [84.2378979, 27.6234414], [84.2408442, 27.6249654], [84.2418661, 27.6273043], [84.2440631, 27.6295827], [84.2452212, 27.6305484], [84.2469413, 27.6311821], [84.2483208, 27.6312726], [84.2502794, 27.6335057], [84.2525786, 27.634924], [84.2581913, 27.636147], [84.2623714, 27.6379114], [84.2671671, 27.6402601], [84.2686, 27.6423677], [84.2704654, 27.645014], [84.2713846, 27.6470137], [84.2731419, 27.6490613], [84.2740611, 27.6503784], [84.2753182, 27.6524618], [84.2768727, 27.6536711], [84.2784445, 27.6542029], [84.2795086, 27.6549882], [84.2824149, 27.6559101], [84.2860511, 27.6564728], [84.289106, 27.6571433], [84.2916743, 27.6575504], [84.2961351, 27.6574187], [84.2976626, 27.6578018], [84.2985277, 27.6586998], [84.2990684, 27.6596935], [84.3001633, 27.6601485], [84.3015827, 27.6602084], [84.3030425, 27.6610943], [84.3048404, 27.6622078], [84.3056649, 27.6630698], [84.3074222, 27.6638839], [84.3090038, 27.6635966], [84.3112612, 27.6634649], [84.3121263, 27.6637403], [84.3149109, 27.6657635], [84.3164924, 27.6672002], [84.318044, 27.6678027], [84.3180226, 27.6681638], [84.3182157, 27.6683704], [84.3182774, 27.6687101], [84.3181862, 27.6688503], [84.3182023, 27.6689548], [84.318433, 27.6692921], [84.3185644, 27.6694157], [84.3189936, 27.6696128], [84.3198331, 27.6701022], [84.3198773, 27.6701583], [84.320053, 27.6706105], [84.3201898, 27.6708243], [84.3205036, 27.6711806], [84.320682, 27.6715979], [84.3208094, 27.6720144], [84.3207772, 27.6721925], [84.320796, 27.6724158], [84.3209073, 27.6724506], [84.3211447, 27.6724277], [84.3212037, 27.6725109], [84.3212023, 27.6726145], [84.3210749, 27.6728648], [84.3211098, 27.67329], [84.3210213, 27.673423], [84.3209006, 27.6737484], [84.3209274, 27.6738435], [84.3209837, 27.6740502], [84.3209972, 27.6743684], [84.3210964, 27.6746154], [84.3212091, 27.6748197], [84.321146, 27.6751871], [84.3210374, 27.6755418], [84.3210454, 27.6757889], [84.321256, 27.6760351], [84.3214719, 27.6760217], [84.3215376, 27.6760755], [84.3216342, 27.6762892], [84.3218461, 27.6760988], [84.3223681, 27.6764082], [84.3227881, 27.6773145], [84.3229316, 27.6777183], [84.3228538, 27.677843], [84.3227211, 27.6779332], [84.3224225, 27.6781122], [84.3224247, 27.6781803], [84.3224682, 27.6782951], [84.3224944, 27.6783651], [84.3235218, 27.6803044], [84.3235758, 27.6827703], [84.327577, 27.6850446], [84.3286854, 27.6871991], [84.3276581, 27.6887313], [84.3265445, 27.6894007], [84.3244255, 27.6908177], [84.3223219, 27.6905413], [84.3215726, 27.6895535], [84.3195033, 27.6890031], [84.3171445, 27.6882641], [84.3149135, 27.6873216], [84.3136106, 27.687314], [84.312478, 27.6868918], [84.3106983, 27.6858738], [84.308601, 27.6846716], [84.3075731, 27.6837926], [84.3054357, 27.6824051], [84.3030259, 27.6805501], [84.3000965, 27.6789665], [84.2956004, 27.6774356], [84.2940288, 27.676849], [84.2883967, 27.676087], [84.2863185, 27.6759726], [84.2838745, 27.6752487], [84.2816775, 27.6739817], [84.2785609, 27.6719305], [84.2753931, 27.6701356], [84.2722679, 27.6695549], [84.2704116, 27.669668], [84.2696963, 27.6696906], [84.2692066, 27.6699093], [84.268888, 27.6702587], [84.2685514, 27.6706279], [84.2684495, 27.6704355], [84.2683744, 27.6703049], [84.2682563, 27.6701077], [84.2679592, 27.670072], [84.2677414, 27.670084], [84.2675649, 27.670053], [84.2671191, 27.6698179], [84.266698, 27.6696706], [84.2663922, 27.6695233], [84.2659207, 27.6693974], [84.2649819, 27.6692264], [84.2642202, 27.6690411], [84.2633994, 27.668775], [84.2626727, 27.668569], [84.2609246, 27.6678563], [84.2599523, 27.6672275], [84.2590813, 27.6678984], [84.2583624, 27.6668817], [84.2566736, 27.6664661], [84.2543373, 27.6640836], [84.250091, 27.6639761], [84.2477627, 27.6636574], [84.2455573, 27.6640481], [84.2427727, 27.6638087], [84.2393933, 27.6635692], [84.2367666, 27.6630738], [84.2364736, 27.6630185], [84.2363932, 27.6630236], [84.2360986, 27.6630424], [84.2359488, 27.663052], [84.2349731, 27.6631143], [84.2329185, 27.6633058], [84.2303563, 27.6638149], [84.2291708, 27.6640895], [84.2278279, 27.6643534], [84.2272235, 27.6644269], [84.2257677, 27.6648383], [84.2230507, 27.664527], [84.2207122, 27.6629945], [84.2194145, 27.6611987], [84.2187092, 27.6594235], [84.2174025, 27.6591364], [84.214495, 27.6586707], [84.2111798, 27.6589558], [84.2091735, 27.6591554], [84.207371, 27.6593549], [84.2059053, 27.6598946], [84.2037364, 27.6582087], [84.2034306, 27.6577146], [84.202347, 27.6572965], [84.200963, 27.6571492], [84.1998257, 27.6575198], [84.1986777, 27.6568308], [84.1968592, 27.6562844], [84.1956307, 27.6561656], [84.1935911, 27.6564127], [84.1917253, 27.655227], [84.1915644, 27.6544742], [84.1906233, 27.653435], [84.1904009, 27.6531234], [84.1903688, 27.653005], [84.1903182, 27.6528179], [84.1903925, 27.6524204], [84.1906598, 27.6522509], [84.1906739, 27.6518845], [84.1907978, 27.6516283], [84.1907304, 27.6515798], [84.1905867, 27.6512463], [84.1906204, 27.6510596], [84.1907213, 27.6510596], [84.1908715, 27.6510501], [84.1909573, 27.6509456], [84.1909573, 27.6500712], [84.1911612, 27.6497006], [84.1914938, 27.6494345], [84.1915903, 27.6491494], [84.1916488, 27.6488381], [84.1915581, 27.6485221], [84.1914294, 27.6483321], [84.191166, 27.6482964], [84.1908656, 27.6483154], [84.1906676, 27.6482465], [84.1905604, 27.648123], [84.1905223, 27.6479733], [84.190496, 27.6477999], [84.190651, 27.6475551], [84.1907964, 27.6473247], [84.1907798, 27.6471655], [84.1906725, 27.6469944], [84.1904853, 27.6469065], [84.1901205, 27.6468019], [84.1898308, 27.6467829], [84.1895518, 27.6468875], [84.1893158, 27.6469635], [84.1889403, 27.646935], [84.1887306, 27.6468423], [84.1885004, 27.6465739], [84.1883824, 27.6462887], [84.1883073, 27.6459656], [84.1883872, 27.6456258], [84.1884301, 27.6453977], [84.1884301, 27.6452077], [84.1883765, 27.6450176], [84.1875611, 27.6429172], [84.1874383, 27.6424396], [84.1873352, 27.6416252], [84.1873095, 27.6414226], [84.1872392, 27.6410828], [84.1869388, 27.6408452], [84.18658, 27.6405387], [84.1845175, 27.6417209], [84.1828034, 27.6418693], [84.1816495, 27.6421762], [84.1791262, 27.6418203], [84.1761097, 27.6401402], [84.1744065, 27.6394816], [84.1735413, 27.6370866], [84.1730006, 27.6348831], [84.1722975, 27.6330318], [84.1727303, 27.6304282], [84.1725005, 27.6277216], [84.1703107, 27.6253263], [84.168256, 27.6236137], [84.1625787, 27.6236017], [84.1606457, 27.6232184], [84.1581855, 27.6226795], [84.155509, 27.6220567], [84.1522252, 27.6216608], [84.152024, 27.6215301], [84.1517344, 27.6214208], [84.1514634, 27.6212473], [84.1512435, 27.6210168], [84.1511309, 27.6208813], [84.1509941, 27.6206865], [84.1507956, 27.6205652], [84.1505676, 27.6204393], [84.1503557, 27.6201921], [84.1501465, 27.6199711], [84.1499641, 27.6197929], [84.14983, 27.6196265], [84.1498327, 27.6194792], [84.1498085, 27.6193912], [84.1497012, 27.6193651], [84.1496261, 27.61927], [84.1495725, 27.6191916], [84.1495001, 27.6191108], [84.1493579, 27.619049], [84.1493284, 27.618923], [84.1492828, 27.6187614], [84.1492587, 27.6186402], [84.1491675, 27.6185095], [84.1490334, 27.618355], [84.1488885, 27.6183479], [84.1488054, 27.6182362], [84.1488, 27.6181316], [84.1487812, 27.6180461], [84.1488376, 27.6178536], [84.1488295, 27.617787], [84.1486579, 27.617749], [84.1482797, 27.6176373], [84.1480541, 27.6178692], [84.1479904, 27.6179257], [84.147884, 27.6178527], [84.1475528, 27.617674], [84.1473784, 27.6173841], [84.1473114, 27.6172819], [84.1472094, 27.6171821], [84.1471183, 27.6170656], [84.1470244, 27.6169112], [84.1467749, 27.616645], [84.1467615, 27.6165452], [84.1466918, 27.6164263], [84.1467159, 27.6163455], [84.1466167, 27.6162148], [84.1465094, 27.6160865], [84.146437, 27.6159653], [84.1463163, 27.6158512], [84.1461258, 27.6157276], [84.1459837, 27.6156064], [84.1458093, 27.6155208], [84.1456082, 27.6154091], [84.1454687, 27.6153545], [84.1453104, 27.615219], [84.1451093, 27.6150835], [84.14501, 27.6149861], [84.1449269, 27.6149053], [84.1448035, 27.6148055], [84.1447579, 27.6147484], [84.1445675, 27.6146771], [84.1443127, 27.6144656], [84.1441276, 27.6143182], [84.1438835, 27.6141447], [84.1437065, 27.6140544], [84.143516, 27.6139094], [84.143162, 27.6136599], [84.1428428, 27.6133818], [84.1427206, 27.6132816], [84.1427043, 27.6132679], [84.1426299, 27.6131907], [84.1425019, 27.6130232], [84.1422437, 27.6127836], [84.1420465, 27.6126503], [84.1417538, 27.612445], [84.1416888, 27.6123549], [84.1415648, 27.6121586], [84.14139, 27.6120343], [84.141142, 27.6118542], [84.1409407, 27.6116506], [84.1408309, 27.6115264], [84.1406198, 27.6114339], [84.1402322, 27.6112766], [84.1400011, 27.6111276], [84.1397442, 27.6109724], [84.1395854, 27.6110097], [84.1393052, 27.6109807], [84.1390764, 27.6109166], [84.1389667, 27.61084], [84.1386678, 27.610869], [84.1385837, 27.6109973], [84.138453, 27.6111028], [84.1326472, 27.6118267], [84.1298491, 27.61221], [84.1280648, 27.6114674], [84.1263352, 27.6108169], [84.1255911, 27.6095509], [84.1240782, 27.6065365], [84.1229088, 27.6044734], [84.1211493, 27.602743], [84.1190357, 27.6006513], [84.1182096, 27.5995389], [84.1173942, 27.5974186], [84.1168255, 27.596135], [84.1163642, 27.5942428], [84.1157634, 27.5931684], [84.114433, 27.5905915], [84.1144008, 27.5896688], [84.1144556, 27.5884897], [84.1149279, 27.5880186], [84.1154889, 27.5875813], [84.1163675, 27.5863653], [84.1166041, 27.5849396], [84.1164351, 27.5829987], [84.1161377, 27.5817167], [84.1160363, 27.5811116], [84.1164824, 27.5800633], [84.1175503, 27.5790149], [84.1175098, 27.5772835], [84.1168588, 27.5759563], [84.1168105, 27.5755426], [84.1167837, 27.5753048], [84.1164565, 27.5748293], [84.1160166, 27.5746058], [84.1158403, 27.5736051], [84.1152388, 27.5724728], [84.1148603, 27.5715262], [84.1147995, 27.5701602], [84.1147252, 27.5690937], [84.1144717, 27.5685287], [84.1143697, 27.5681673], [84.1141766, 27.5679866], [84.113667, 27.5676109], [84.1133344, 27.5673398], [84.1131762, 27.5672613], [84.1130059, 27.5672221], [84.1128141, 27.5671924], [84.1125405, 27.5672067], [84.1123205, 27.5672209], [84.1121113, 27.5672542], [84.111886, 27.567316], [84.1116607, 27.5674064], [84.1114596, 27.5675324], [84.1112906, 27.5676775], [84.1104562, 27.5683564], [84.1102843, 27.5684092], [84.1101191, 27.5684184], [84.1098895, 27.5683468], [84.109119, 27.5679354], [84.1089171, 27.5678379], [84.1085414, 27.5674643], [84.1081388, 27.5671667], [84.1065913, 27.5668188], [84.1063933, 27.5667055], [84.1061927, 27.5665922], [84.1059416, 27.566394], [84.105839, 27.5662262], [84.1057608, 27.5659806], [84.1057149, 27.5657255], [84.1058385, 27.5648495], [84.1058763, 27.5636454], [84.1058806, 27.5628124], [84.1060334, 27.5622988], [84.1061378, 27.5619128], [84.1059557, 27.5612264], [84.1063664, 27.5601364], [84.1074985, 27.5584473], [84.1074445, 27.5580148], [84.106696, 27.5572506], [84.1054542, 27.5572825], [84.1047621, 27.5568583], [84.104645, 27.5565363], [84.1032115, 27.5553657], [84.0966758, 27.5556432], [84.0916458, 27.5558712], [84.0870644, 27.5589816], [84.0839307, 27.5600082], [84.0786171, 27.5614124], [84.0762674, 27.5629018], [84.0734896, 27.5630977], [84.0712783, 27.563176], [84.0664834, 27.563631], [84.0633268, 27.564109], [84.0600342, 27.5652712], [84.0589243, 27.5641685], [84.0576462, 27.5633166], [84.0541554, 27.5624025], [84.0526144, 27.5618443], [84.0510748, 27.5587087], [84.0463401, 27.5572441], [84.0442351, 27.556288], [84.0432473, 27.5542496], [84.0417142, 27.5512421], [84.0380287, 27.5481038], [84.0373376, 27.5484514], [84.0362817, 27.5483004], [84.0349059, 27.5462206], [84.0339209, 27.5452472], [84.0297643, 27.5439958], [84.0217482, 27.5406844], [84.0187296, 27.5405063], [84.0160575, 27.5417186], [84.0121249, 27.5450448], [84.0103207, 27.5493623], [84.0085068, 27.55311], [84.0055388, 27.557295], [84.002416, 27.5598746], [84.0015357, 27.5601202], [83.9987009, 27.5614975], [83.9941733, 27.5625057], [83.989281, 27.5624676], [83.9834016, 27.56281], [83.9799683, 27.5622394], [83.9757197, 27.5587392], [83.9729302, 27.5542496], [83.9664929, 27.5539833], [83.9610038, 27.5549149], [83.9581937, 27.5538127], [83.9547364, 27.5504757], [83.9455226, 27.5484372], [83.9364281, 27.5482107], [83.9317786, 27.5485278], [83.9271891, 27.5494104], [83.9233106, 27.5469609], [83.9214921, 27.5448967], [83.920446, 27.543855], [83.9194965, 27.5429656], [83.9105519, 27.5423538], [83.903664, 27.5422777], [83.8969478, 27.5408127], [83.8943514, 27.5380539], [83.8902101, 27.5313564], [83.8862404, 27.5299673], [83.8819831, 27.527797], [83.8822556, 27.5252718], [83.8822127, 27.523445], [83.881569, 27.5214279], [83.8799811, 27.5207429], [83.8784791, 27.5197914], [83.8775778, 27.5184212], [83.8765908, 27.5164802], [83.8763762, 27.5147293], [83.8756767, 27.5103769]]]]}, "properties": {"boundary": "national_park", "description": "Nawalparasi part", "heritage": "1", "heritage:operator": "whc", "int_name": "Chitwan National Park", "name": "चितवन राष्ट्रिय निकुञ्‍ज", "name:cs": "národní park Čitvan", "name:en": "Chitwan National Park", "name:fa": "پارک ملی چیتوان", "name:ne": "चितवन राष्ट्रिय निकुञ्‍ज", "name:ur": "چتوان قومی پارک", "name:zh": "奇特旺国家公园", "protect_class": "2", "ref:whc": "284", "sorting_name:cs": "Čitvan", "whc:criteria": "vii, ix, x (natural)", "wikidata": "Q1075023", "wikipedia": "en:Chitwan National Park", "osm_id": 6083166}}]}