{"type": "FeatureCollection", "features": [{"type": "Feature", "geometry": {"type": "Point", "coordinates": [84.5123776, 27.6228767]}, "properties": {"name": "Sauraha Chok", "note": "Apparently the place west of the canal is Sauraha Chowk, east is Tandi bazaar.", "place": "locality", "osm_id": 1041301333}}, {"type": "Feature", "geometry": {"type": "Point", "coordinates": [84.4939297, 27.5795796]}, "properties": {"amenity": "restaurant", "name": "Sauraha Hotel", "osm_id": 1325446569}}, {"type": "Feature", "geometry": {"type": "Point", "coordinates": [84.4170709, 27.434914]}, "properties": {"amenity": "police", "name": "Someswor Police", "osm_id": 1657835306}}, {"type": "Feature", "geometry": {"type": "Point", "coordinates": [84.3232579, 27.4571557]}, "properties": {"amenity": "police", "name": "Basantapur Police", "osm_id": 1657866081}}, {"type": "Feature", "geometry": {"type": "Point", "coordinates": [84.4351937, 27.6806874]}, "properties": {"amenity": "police", "name": "District Police Station", "osm_id": 1904887874}}, {"type": "Feature", "geometry": {"type": "Point", "coordinates": [84.4183649, 27.6964061]}, "properties": {"amenity": "police", "osm_id": 1999614390}}, {"type": "Feature", "geometry": {"type": "Point", "coordinates": [84.4841015, 27.7116894]}, "properties": {"amenity": "police", "name": "Haripur Chouki", "osm_id": 3379490348}}, {"type": "Feature", "geometry": {"type": "Point", "coordinates": [84.4306388, 27.680216]}, "properties": {"amenity": "police", "name": "District Traffic Office", "osm_id": 3392360988}}, {"type": "Feature", "geometry": {"type": "Point", "coordinates": [84.4393659, 27.6947448]}, "properties": {"amenity": "police", "name": "district police training center", "osm_id": 3392361355}}, {"type": "Feature", "geometry": {"type": "Point", "coordinates": [84.4384065, 27.6712321]}, "properties": {"amenity": "police", "name": "Police Station", "osm_id": 3392362858}}, {"type": "Feature", "geometry": {"type": "Point", "coordinates": [84.8059241, 27.5396632]}, "properties": {"amenity": "police", "name": "Manahari Police Station", "osm_id": 3438862575}}, {"type": "Feature", "geometry": {"type": "Point", "coordinates": [84.1077927, 27.5681671]}, "properties": {"name": "Amaltari home stay office", "tourism": "hotel", "osm_id": 3453240299}}, {"type": "Feature", "geometry": {"type": "Point", "coordinates": [84.5129871, 27.680876]}, "properties": {"amenity": "police", "name": "Police", "osm_id": 3458642320}}, {"type": "Feature", "geometry": {"type": "Point", "coordinates": [84.4156837, 27.7033486]}, "properties": {"amenity": "police", "name": "Police Check post", "osm_id": 3640351321}}, {"type": "Feature", "geometry": {"type": "Point", "coordinates": [83.8712996, 27.584158]}, "properties": {"amenity": "police", "name": "Check post", "osm_id": 3640402155}}, {"type": "Feature", "geometry": {"type": "Point", "coordinates": [84.1292308, 27.6454109]}, "properties": {"amenity": "police", "name": "Check post", "osm_id": 3640411825}}, {"type": "Feature", "geometry": {"type": "Point", "coordinates": [84.4179539, 27.7011535]}, "properties": {"addr:city": "Nawalparasi", "addr:housenumber": "Gaindakot -2", "addr:postcode": "33003", "addr:street": "Mahendra Highway", "amenity": "police", "name": "Gaindakot  Police Checkpost", "operator": "Nepal Police Organization", "osm_id": 4405187143}}, {"type": "Feature", "geometry": {"type": "Point", "coordinates": [84.190994, 27.669628]}, "properties": {"addr:street": "36 ghar", "amenity": "police", "name:en": "police station", "osm_id": 4426098891}}, {"type": "Feature", "geometry": {"type": "Point", "coordinates": [84.1126321, 27.6554616]}, "properties": {"amenity": "police", "name:en": "Community Police", "osm_id": 4436462090}}, {"type": "Feature", "geometry": {"type": "Point", "coordinates": [84.5066224, 27.6266845]}, "properties": {"amenity": "police", "name:en": "Er. Rupesh Bhatta Residence", "osm_id": 4500599419}}, {"type": "Feature", "geometry": {"type": "Point", "coordinates": [84.3862607, 27.6629615]}, "properties": {"amenity": "police", "name:en": "Kalyanpur", "osm_id": 4511415589}}, {"type": "Feature", "geometry": {"type": "Point", "coordinates": [84.5631811, 27.6897979]}, "properties": {"amenity": "police", "name:en": "Army camp,Jutpani", "osm_id": 4553852793}}, {"type": "Feature", "geometry": {"type": "Point", "coordinates": [84.4345441, 27.6787341]}, "properties": {"amenity": "police", "name": "District Police Office, Chitwan", "osm_id": 4578646216}}, {"type": "Feature", "geometry": {"type": "Point", "coordinates": [84.5692137, 27.605247]}, "properties": {"addr:postcode": "44203", "addr:street": "khairahani-6, Parsa", "amenity": "police", "email": "letterstoayush@gmal.com", "name:en": "Ayush Dhital's Home", "phone": "+9779845693700", "website": "http://ayushdhital.com.np", "osm_id": 4590049689}}, {"type": "Feature", "geometry": {"type": "Point", "coordinates": [84.4961339, 27.5830775]}, "properties": {"amenity": "police", "name": "Tourist Police", "osm_id": 5252077949}}, {"type": "Feature", "geometry": {"type": "Point", "coordinates": [84.3315888, 27.5501114]}, "properties": {"name": "Kasara", "place": "village", "osm_id": 5252165737}}, {"type": "Feature", "geometry": {"type": "Point", "coordinates": [83.8804859, 27.4640775]}, "properties": {"amenity": "police", "name:en": "Police Station", "osm_id": 5340759022}}, {"type": "Feature", "geometry": {"type": "Point", "coordinates": [84.811849, 27.729903]}, "properties": {"amenity": "police", "name:en": "Police Post, Talti", "osm_id": 5352183630}}, {"type": "Feature", "geometry": {"type": "Point", "coordinates": [84.2533839, 27.5841252]}, "properties": {"addr:street": "Bharatpur Metropolitan City-27, Parshadhap, Chitwan", "amenity": "police", "name:en": "Police Station", "osm_id": 6011418085}}, {"type": "Feature", "geometry": {"type": "Point", "coordinates": [84.5110293, 27.6230537]}, "properties": {"name:en": "AP Arts,  Ratnanagar-1 ( Sauraha chok)", "name:hi": "एपी अर्टस् , रत्ननगर-१, सौराह चोक", "tourism": "artwork", "osm_id": 6317921285}}, {"type": "Feature", "geometry": {"type": "Point", "coordinates": [84.4948233, 27.5768092]}, "properties": {"internet_access": "wlan", "name:en": "Sauraha Tharu Cultural House", "tourism": "museum", "osm_id": 6361490487}}, {"type": "Feature", "geometry": {"type": "Point", "coordinates": [84.781588, 27.8118103]}, "properties": {"amenity": "police", "name": "Area Police Office", "osm_id": 9510265542}}, {"type": "Feature", "geometry": {"type": "Point", "coordinates": [84.8443899, 27.5479921]}, "properties": {"addr:municipality": "Raksirang Rural Municipality", "addr:town": "Chainpur", "amenity": "police", "contact:phone": "+977-9855076647", "name": "प्रहरी चौकी चेनपुर", "name:en": "Police station Chainpur", "name:ne": "प्रहरी चौकी चेनपुर", "source": "GES", "ward": "5", "osm_id": 9520836478}}, {"type": "Feature", "geometry": {"type": "Point", "coordinates": [84.847428, 27.6484472]}, "properties": {"addr:municipality": "Raksirang Rural Municipality", "addr:town": "Khairang", "amenity": "police", "contact:phone": "9846949075", "name": "प्रहरी चौकी खैराङ", "name:en": "Police Station Khairang", "name:ne": "प्रहरी चौकी खैराङ्ग", "opening_hours": "24/7", "source": "GES", "ward": "9", "osm_id": 9520836484}}, {"type": "Feature", "geometry": {"type": "Point", "coordinates": [84.455588, 27.6588254]}, "properties": {"amenity": "police", "name": "Esthaii Traffic police", "osm_id": 9594143430}}, {"type": "Feature", "geometry": {"type": "Point", "coordinates": [84.494118, 27.5786076]}, "properties": {"amenity": "fast_food", "name:en": "Sauraha Nepali local khaja Ghar and sekuwa", "osm_id": 9668044717}}, {"type": "Feature", "geometry": {"type": "Point", "coordinates": [84.4941052, 27.5799383]}, "properties": {"amenity": "bank", "name": "Sauraha Saving and Credit Cooperative Limited", "phone": "0565580119", "osm_id": 9771280365}}, {"type": "Feature", "geometry": {"type": "Point", "coordinates": [84.5022758, 27.5826469]}, "properties": {"amenity": "school", "name": "Sauraha Community Library", "phone": "056580498", "osm_id": 9771305557}}, {"type": "Feature", "geometry": {"type": "Point", "coordinates": [84.5023171, 27.5824078]}, "properties": {"amenity": "hospital", "healthcare": "hospital", "name": "Sauraha Eye Care Center", "phone": "9851074484", "osm_id": 9771419656}}, {"type": "Feature", "geometry": {"type": "Point", "coordinates": [84.4839022, 27.5827161]}, "properties": {"name": "Nepal Telecom", "name:en": "Nepal Telecom Sauraha", "office": "company", "osm_id": 11098538605}}, {"type": "Feature", "geometry": {"type": "Point", "coordinates": [84.5028344, 27.5755536]}, "properties": {"addr:street": "Ratnanager 44600", "name:en": "Hotel Parkside, Sauraha", "tourism": "hotel", "osm_id": 11754281571}}, {"type": "Feature", "geometry": {"type": "Point", "coordinates": [84.4999119, 27.5784279]}, "properties": {"addr:postcode": "44200", "email": "peaceful.cottage0@gmail.com", "internet_access": "wlan", "name": "Hotel National Park Sauraha", "opening_hours": "Mo-Su 06:00-22:00", "phone": "+9779845155749", "tourism": "hotel", "website": "https://www.booking.com/hotel/np/national-park.en-gb.html?", "osm_id": 11815975469}}, {"type": "Feature", "geometry": {"type": "Point", "coordinates": [84.5023058, 27.5801633]}, "properties": {"name": "सौराहा", "name:en": "Sauraha", "name:fa": "ساوراها", "name:ne": "सौराहा", "name:ur": "سوراہا", "place": "suburb", "osm_id": 12969605791}}]}