{"type": "FeatureCollection", "features": [{"type": "Feature", "properties": {"overture_id": "dd6e594c-7a4f-41fe-884c-f98ced40018b", "class": "unknown", "subtype": "road", "length_km": 0.2308995229967086, "sources": [{"property": "", "dataset": "TomTom", "license": "ODbL-1.0", "record_id": null, "update_time": null, "confidence": null, "between": null, "provider": "tomtom", "resource": "orbis", "version": "2637"}], "connectors": [{"connector_id": "4f53599e-7bc9-4549-9d4e-050f5ff2765a", "at": 0.0}, {"connector_id": "95cea69b-5413-4850-a4cb-7178455a64e3", "at": 1.0}], "release": "2026-09-23.1", "nonoverlap_50m_km": 0.14701811403658208}, "geometry": {"type": "LineString", "coordinates": [[15.9482312, -19.1716391], [15.9482134, -19.1716624], [15.9480687, -19.1717675], [15.9480409, -19.1717972], [15.9479893, -19.1718805], [15.9479596, -19.1719043], [15.9479338, -19.1719102], [15.9478624, -19.1719102], [15.9477137, -19.1718785], [15.9475531, -19.1718626], [15.9474857, -19.1718468], [15.947446, -19.1718309], [15.9474222, -19.1718131], [15.9473687, -19.1717734], [15.9472993, -19.1717218], [15.9471585, -19.1716346], [15.9471089, -19.1715949], [15.9470712, -19.1715434], [15.9470216, -19.1714621], [15.946972, -19.171351], [15.9469483, -19.1712558], [15.9469344, -19.1710932], [15.9469245, -19.1710377], [15.9469046, -19.1709822], [15.9468749, -19.1709346], [15.9468055, -19.1708514]]}}]}