{
  "type": "FeatureCollection",
  "features": [
    {
      "type": "Feature",
      "properties": {
        "name": "Etosha National Park",
        "osm_relation_id": 2982497
      },
      "geometry": {
        "type": "MultiPolygon",
        "coordinates": [
          [
            [
              [
                14.3531694,
                -19.0619828
              ],
              [
                14.3534913,
                -19.0632181
              ],
              [
                14.3536166,
                -19.0637194
              ],
              [
                14.3537265,
                -19.0640756
              ],
              [
                14.3539779,
                -19.0648905
              ],
              [
                14.3542476,
                -19.0657649
              ],
              [
                14.3546012,
                -19.0669727
              ],
              [
                14.3549012,
                -19.0679973
              ],
              [
                14.3557285,
                -19.070561
              ],
              [
                14.3561759,
                -19.0720433
              ],
              [
                14.3567931,
                -19.0740633
              ],
              [
                14.3576799,
                -19.0770401
              ],
              [
                14.3580985,
                -19.0782962
              ],
              [
                14.3600131,
                -19.0845057
              ],
              [
                14.3605694,
                -19.0863822
              ],
              [
                14.3613452,
                -19.0887938
              ],
              [
                14.3629535,
                -19.0939933
              ],
              [
                14.3634035,
                -19.0954798
              ],
              [
                14.364577,
                -19.0993564
              ],
              [
                14.3655158,
                -19.1022565
              ],
              [
                14.3669255,
                -19.1068032
              ],
              [
                14.3672593,
                -19.1079196
              ],
              [
                14.3678753,
                -19.1099792
              ],
              [
                14.3681426,
                -19.1108733
              ],
              [
                14.3691512,
                -19.1140069
              ],
              [
                14.3702472,
                -19.1175808
              ],
              [
                14.3713708,
                -19.1212692
              ],
              [
                14.3716892,
                -19.1223144
              ],
              [
                14.3734524,
                -19.1281025
              ],
              [
                14.3740864,
                -19.1300298
              ],
              [
                14.3750698,
                -19.1334056
              ],
              [
                14.3765828,
                -19.138599
              ],
              [
                14.3779566,
                -19.1432052
              ],
              [
                14.3787852,
                -19.1460107
              ],
              [
                14.3799302,
                -19.1498872
              ],
              [
                14.3800422,
                -19.1502665
              ],
              [
                14.3806704,
                -19.1523742
              ],
              [
                14.3815869,
                -19.1554484
              ],
              [
                14.3818946,
                -19.156408
              ],
              [
                14.3820612,
                -19.1572033
              ],
              [
                14.3822514,
                -19.1577943
              ],
              [
                14.3827948,
                -19.1592087
              ],
              [
                14.3833271,
                -19.1605379
              ],
              [
                14.3843892,
                -19.1629841
              ],
              [
                14.3865134,
                -19.1678481
              ],
              [
                14.3868907,
                -19.1687122
              ],
              [
                14.3898061,
                -19.1754178
              ],
              [
                14.3917967,
                -19.179996
              ],
              [
                14.3959893,
                -19.1896227
              ],
              [
                14.3962951,
                -19.1903248
              ],
              [
                14.4013581,
                -19.2019751
              ],
              [
                14.4019322,
                -19.2032633
              ],
              [
                14.4022057,
                -19.2039911
              ],
              [
                14.4024792,
                -19.2049186
              ],
              [
                14.4025538,
                -19.2053999
              ],
              [
                14.4029516,
                -19.2069143
              ],
              [
                14.4030022,
                -19.2072201
              ],
              [
                14.4033198,
                -19.2085772
              ],
              [
                14.4040725,
                -19.2102865
              ],
              [
                14.404793,
                -19.2119494
              ],
              [
                14.4056584,
                -19.2138438
              ],
              [
                14.4063457,
                -19.2154286
              ],
              [
                14.4070175,
                -19.2175958
              ],
              [
                14.4073511,
                -19.2200893
              ],
              [
                14.4080815,
                -19.2255739
              ],
              [
                14.4083445,
                -19.2267736
              ],
              [
                14.4084926,
                -19.2271669
              ],
              [
                14.4087354,
                -19.2276006
              ],
              [
                14.4090689,
                -19.2281041
              ],
              [
                14.4093922,
                -19.2285113
              ],
              [
                14.4097384,
                -19.2288522
              ],
              [
                14.4102409,
                -19.2292333
              ],
              [
                14.4115617,
                -19.230235
              ],
              [
                14.4130325,
                -19.2313312
              ],
              [
                14.4139134,
                -19.2322288
              ],
              [
                14.4146853,
                -19.2332019
              ],
              [
                14.41468,
                -19.233307
              ],
              [
                14.414919,
                -19.2339189
              ],
              [
                14.4156676,
                -19.2355997
              ],
              [
                14.415983,
                -19.2365008
              ],
              [
                14.4167382,
                -19.2383316
              ],
              [
                14.4171845,
                -19.239434
              ],
              [
                14.417853,
                -19.2408851
              ],
              [
                14.4182944,
                -19.2418341
              ],
              [
                14.4185722,
                -19.2423484
              ],
              [
                14.4193534,
                -19.2432297
              ],
              [
                14.4197106,
                -19.2435396
              ],
              [
                14.4199677,
                -19.2437474
              ],
              [
                14.4202955,
                -19.2439771
              ],
              [
                14.4211783,
                -19.2443726
              ],
              [
                14.4226043,
                -19.2446307
              ],
              [
                14.4261381,
                -19.2447672
              ],
              [
                14.4331388,
                -19.2448225
              ],
              [
                14.434257,
                -19.245047
              ],
              [
                14.4350416,
                -19.2452991
              ],
              [
                14.4362446,
                -19.2460159
              ],
              [
                14.4368663,
                -19.2465438
              ],
              [
                14.4382933,
                -19.2479383
              ],
              [
                14.4387811,
                -19.2484073
              ],
              [
                14.439407,
                -19.248876
              ],
              [
                14.4399077,
                -19.2495851
              ],
              [
                14.4433123,
                -19.2530509
              ],
              [
                14.4457925,
                -19.2555836
              ],
              [
                14.4468998,
                -19.2562417
              ],
              [
                14.4472287,
                -19.2565326
              ],
              [
                14.4476589,
                -19.2569486
              ],
              [
                14.4477006,
                -19.2574291
              ],
              [
                14.4493196,
                -19.2589805
              ],
              [
                14.452191,
                -19.2619084
              ],
              [
                14.4540339,
                -19.2637731
              ],
              [
                14.4556053,
                -19.2653501
              ],
              [
                14.4567777,
                -19.2667547
              ],
              [
                14.4584467,
                -19.2687282
              ],
              [
                14.4592282,
                -19.2692363
              ],
              [
                14.4599942,
                -19.2693912
              ],
              [
                14.4607632,
                -19.2695126
              ],
              [
                14.461614,
                -19.2696505
              ],
              [
                14.4625388,
                -19.269661
              ],
              [
                14.4633172,
                -19.2697608
              ],
              [
                14.4640894,
                -19.2698475
              ],
              [
                14.4651743,
                -19.2703802
              ],
              [
                14.4660519,
                -19.271357
              ],
              [
                14.4663315,
                -19.2722777
              ],
              [
                14.4670033,
                -19.2790379
              ],
              [
                14.4672953,
                -19.279798
              ],
              [
                14.4677668,
                -19.2805267
              ],
              [
                14.4684937,
                -19.2812415
              ],
              [
                14.4694367,
                -19.2817338
              ],
              [
                14.4713018,
                -19.2825018
              ],
              [
                14.4719392,
                -19.282904
              ],
              [
                14.4724979,
                -19.2833765
              ],
              [
                14.472901,
                -19.2840307
              ],
              [
                14.4730257,
                -19.2846149
              ],
              [
                14.4731069,
                -19.2877766
              ],
              [
                14.4731598,
                -19.2916684
              ],
              [
                14.473191,
                -19.2928949
              ],
              [
                14.4732866,
                -19.2932616
              ],
              [
                14.4731888,
                -19.2933952
              ],
              [
                14.4732261,
                -19.2960288
              ],
              [
                14.4733938,
                -19.2976544
              ],
              [
                14.4739265,
                -19.2994907
              ],
              [
                14.4745029,
                -19.3007682
              ],
              [
                14.4746487,
                -19.3011539
              ],
              [
                14.4756895,
                -19.3035096
              ],
              [
                14.4771508,
                -19.306726
              ],
              [
                14.4780048,
                -19.3083593
              ],
              [
                14.4788948,
                -19.3100034
              ],
              [
                14.480839,
                -19.3135061
              ],
              [
                14.486509,
                -19.3137634
              ],
              [
                14.486692,
                -19.3145488
              ],
              [
                14.4867831,
                -19.3146136
              ],
              [
                14.486732,
                -19.3146739
              ],
              [
                14.4867005,
                -19.3147127
              ],
              [
                14.4869035,
                -19.3149509
              ],
              [
                14.4889127,
                -19.3209872
              ],
              [
                14.4824066,
                -19.3222683
              ],
              [
                14.4827039,
                -19.3274531
              ],
              [
                14.4828151,
                -19.3296792
              ],
              [
                14.4827885,
                -19.3302107
              ],
              [
                14.4827184,
                -19.3312212
              ],
              [
                14.4825709,
                -19.3327967
              ],
              [
                14.481882,
                -19.3390154
              ],
              [
                14.4813654,
                -19.3433908
              ],
              [
                14.4812986,
                -19.3440562
              ],
              [
                14.4809231,
                -19.3453199
              ],
              [
                14.4806165,
                -19.3459725
              ],
              [
                14.4801428,
                -19.3468755
              ],
              [
                14.4786301,
                -19.3495665
              ],
              [
                14.4778885,
                -19.3508311
              ],
              [
                14.4722379,
                -19.3602763
              ],
              [
                14.4709278,
                -19.3617092
              ],
              [
                14.4704771,
                -19.362095
              ],
              [
                14.4658297,
                -19.3652324
              ],
              [
                14.4657421,
                -19.3654568
              ],
              [
                14.4654667,
                -19.3654961
              ],
              [
                14.4622622,
                -19.3676392
              ],
              [
                14.4615028,
                -19.368147
              ],
              [
                14.4603011,
                -19.3692885
              ],
              [
                14.4593873,
                -19.3704739
              ],
              [
                14.4594332,
                -19.3706747
              ],
              [
                14.4587529,
                -19.3720281
              ],
              [
                14.4584777,
                -19.3720957
              ],
              [
                14.4561535,
                -19.3769831
              ],
              [
                14.4560075,
                -19.3775735
              ],
              [
                14.4557738,
                -19.3786985
              ],
              [
                14.4557405,
                -19.3793952
              ],
              [
                14.4559533,
                -19.3832707
              ],
              [
                14.4560534,
                -19.3842934
              ],
              [
                14.4559407,
                -19.3848076
              ],
              [
                14.456165,
                -19.385531
              ],
              [
                14.4559699,
                -19.3874535
              ],
              [
                14.4557663,
                -19.3885857
              ],
              [
                14.454884,
                -19.3921717
              ],
              [
                14.4541614,
                -19.3955704
              ],
              [
                14.452535,
                -19.4030248
              ],
              [
                14.450703,
                -19.4104958
              ],
              [
                14.4495598,
                -19.414474
              ],
              [
                14.4685698,
                -19.4167897
              ],
              [
                14.4695644,
                -19.4162537
              ],
              [
                14.4709823,
                -19.4158216
              ],
              [
                14.473148,
                -19.4155654
              ],
              [
                14.4739019,
                -19.4157404
              ],
              [
                14.4745515,
                -19.4156283
              ],
              [
                14.4748763,
                -19.4157568
              ],
              [
                14.4752537,
                -19.4166239
              ],
              [
                14.4765199,
                -19.4164817
              ],
              [
                14.478206,
                -19.4167546
              ],
              [
                14.4784427,
                -19.416677
              ],
              [
                14.4814334,
                -19.4166015
              ],
              [
                14.48188,
                -19.4168975
              ],
              [
                14.4818771,
                -19.417586
              ],
              [
                14.5872181,
                -19.4174956
              ],
              [
                14.5878606,
                -19.4095811
              ],
              [
                14.5887431,
                -19.3974241
              ],
              [
                14.5905604,
                -19.3738439
              ],
              [
                14.5937166,
                -19.3330898
              ],
              [
                14.5941397,
                -19.3266369
              ],
              [
                14.5624497,
                -19.3280109
              ],
              [
                14.5384758,
                -19.329038
              ],
              [
                14.5382511,
                -19.3182178
              ],
              [
                14.5376464,
                -19.2976165
              ],
              [
                14.5370753,
                -19.2788511
              ],
              [
                14.5370673,
                -19.2785454
              ],
              [
                14.536904,
                -19.2733497
              ],
              [
                14.5364669,
                -19.2554497
              ],
              [
                14.5362231,
                -19.2467684
              ],
              [
                14.6494143,
                -19.2342163
              ],
              [
                14.712225,
                -19.2346512
              ],
              [
                14.7597577,
                -19.2354317
              ],
              [
                14.8153379,
                -19.2362719
              ],
              [
                14.8604576,
                -19.235603
              ],
              [
                14.9135231,
                -19.2347579
              ],
              [
                14.9988001,
                -19.2157383
              ],
              [
                15.030904,
                -19.2085756
              ],
              [
                15.08992,
                -19.205464
              ],
              [
                15.1269019,
                -19.2103284
              ],
              [
                15.1470242,
                -19.2129547
              ],
              [
                15.1478795,
                -19.2130281
              ],
              [
                15.1545837,
                -19.2144966
              ],
              [
                15.1874382,
                -19.2214839
              ],
              [
                15.201671,
                -19.224509
              ],
              [
                15.3011658,
                -19.196158
              ],
              [
                15.3172732,
                -19.1915584
              ],
              [
                15.3141042,
                -19.2462587
              ],
              [
                15.3697782,
                -19.2478769
              ],
              [
                15.3698207,
                -19.2478695
              ],
              [
                15.4202264,
                -19.2391244
              ],
              [
                15.5103785,
                -19.2457405
              ],
              [
                15.5508136,
                -19.2358851
              ],
              [
                15.5604386,
                -19.2456938
              ],
              [
                15.6341215,
                -19.2592117
              ],
              [
                15.6743921,
                -19.2679204
              ],
              [
                15.6935028,
                -19.2720703
              ],
              [
                15.6947353,
                -19.2723042
              ],
              [
                15.70263,
                -19.2738463
              ],
              [
                15.7617872,
                -19.2846789
              ],
              [
                15.7914086,
                -19.283656
              ],
              [
                15.8002514,
                -19.283734
              ],
              [
                15.8505329,
                -19.2839156
              ],
              [
                15.9332267,
                -19.3279759
              ],
              [
                15.937382,
                -19.3301913
              ],
              [
                15.9392383,
                -19.3304288
              ],
              [
                15.9392104,
                -19.3312252
              ],
              [
                15.9400971,
                -19.3312847
              ],
              [
                15.9403873,
                -19.3312987
              ],
              [
                15.9404227,
                -19.3306554
              ],
              [
                15.9408981,
                -19.3306957
              ],
              [
                15.9409984,
                -19.3306193
              ],
              [
                15.9816077,
                -19.3350039
              ],
              [
                15.9933594,
                -19.3362679
              ],
              [
                16.0105846,
                -19.3391708
              ],
              [
                16.0469867,
                -19.3452377
              ],
              [
                16.0604948,
                -19.3474898
              ],
              [
                16.1347461,
                -19.3659352
              ],
              [
                16.1489257,
                -19.3669693
              ],
              [
                16.1690352,
                -19.3684393
              ],
              [
                16.1797017,
                -19.3692258
              ],
              [
                16.1844001,
                -19.3695838
              ],
              [
                16.205823,
                -19.3782312
              ],
              [
                16.2165977,
                -19.3825747
              ],
              [
                16.2244899,
                -19.3857465
              ],
              [
                16.2307223,
                -19.3882751
              ],
              [
                16.2536369,
                -19.3935992
              ],
              [
                16.2609239,
                -19.3953033
              ],
              [
                16.2661333,
                -19.3965042
              ],
              [
                16.274539,
                -19.3984762
              ],
              [
                16.2842856,
                -19.4007229
              ],
              [
                16.289522,
                -19.4019468
              ],
              [
                16.3559425,
                -19.4169371
              ],
              [
                16.4062629,
                -19.4185371
              ],
              [
                16.409482,
                -19.4186493
              ],
              [
                16.4696386,
                -19.4320404
              ],
              [
                16.4853655,
                -19.4355231
              ],
              [
                16.5994073,
                -19.4365777
              ],
              [
                16.60792,
                -19.4407576
              ],
              [
                16.6994783,
                -19.4859773
              ],
              [
                16.7002564,
                -19.4864319
              ],
              [
                16.7015604,
                -19.4869573
              ],
              [
                16.8345445,
                -19.419836
              ],
              [
                16.8966162,
                -19.3884813
              ],
              [
                16.8987883,
                -19.3874477
              ],
              [
                16.9172216,
                -19.3792968
              ],
              [
                16.9274034,
                -19.3747978
              ],
              [
                16.990746,
                -19.3467485
              ],
              [
                17.0250225,
                -19.3083067
              ],
              [
                17.0477231,
                -19.2828966
              ],
              [
                17.0724408,
                -19.2551538
              ],
              [
                17.0958346,
                -19.2288037
              ],
              [
                17.1159251,
                -19.2052836
              ],
              [
                17.1147512,
                -19.1895102
              ],
              [
                17.1273802,
                -19.1758387
              ],
              [
                17.1230509,
                -19.1563999
              ],
              [
                17.0774096,
                -18.9393579
              ],
              [
                17.0614709,
                -18.8817404
              ],
              [
                17.0611456,
                -18.8804009
              ],
              [
                17.0597992,
                -18.8745459
              ],
              [
                17.043275,
                -18.8034819
              ],
              [
                17.0432667,
                -18.8034459
              ],
              [
                17.0432526,
                -18.8033116
              ],
              [
                17.043242,
                -18.8032587
              ],
              [
                17.043188,
                -18.8030592
              ],
              [
                17.0428748,
                -18.800068
              ],
              [
                17.0427229,
                -18.7989542
              ],
              [
                17.0389636,
                -18.7649291
              ],
              [
                17.0273119,
                -18.7482581
              ],
              [
                17.0273514,
                -18.7405495
              ],
              [
                17.0274197,
                -18.7272361
              ],
              [
                17.0275799,
                -18.6959681
              ],
              [
                17.0279279,
                -18.6202805
              ],
              [
                17.0596468,
                -18.6204054
              ],
              [
                17.1448011,
                -18.6207408
              ],
              [
                17.1417877,
                -18.6139325
              ],
              [
                17.1412505,
                -18.6127246
              ],
              [
                17.1506096,
                -18.596162
              ],
              [
                17.1512752,
                -18.5949815
              ],
              [
                17.1272784,
                -18.5617636
              ],
              [
                17.111407,
                -18.5267805
              ],
              [
                17.1085959,
                -18.523564
              ],
              [
                17.1053873,
                -18.5217291
              ],
              [
                17.0378716,
                -18.5008315
              ],
              [
                16.8693216,
                -18.5008242
              ],
              [
                16.7450128,
                -18.5008563
              ],
              [
                16.7444562,
                -18.5008563
              ],
              [
                16.7443066,
                -18.5008691
              ],
              [
                16.7442325,
                -18.500941
              ],
              [
                16.744201,
                -18.5009705
              ],
              [
                16.7441559,
                -18.5009308
              ],
              [
                16.7440429,
                -18.5009233
              ],
              [
                16.7438967,
                -18.5008818
              ],
              [
                16.7397174,
                -18.5008813
              ],
              [
                16.3744412,
                -18.5008361
              ],
              [
                15.6637998,
                -18.4997326
              ],
              [
                15.6303136,
                -18.6811972
              ],
              [
                15.565043,
                -18.6606282
              ],
              [
                15.5468314,
                -18.6550455
              ],
              [
                15.5246298,
                -18.6481215
              ],
              [
                15.4973881,
                -18.6396758
              ],
              [
                15.4947158,
                -18.6388552
              ],
              [
                15.4723997,
                -18.6356569
              ],
              [
                15.4696494,
                -18.6352644
              ],
              [
                15.4539515,
                -18.6330211
              ],
              [
                15.4413853,
                -18.6312226
              ],
              [
                15.4210616,
                -18.6283138
              ],
              [
                15.4083463,
                -18.6264939
              ],
              [
                15.3899159,
                -18.6238587
              ],
              [
                15.3545569,
                -18.6188056
              ],
              [
                15.3476356,
                -18.6178164
              ],
              [
                15.3081564,
                -18.6121589
              ],
              [
                15.2885235,
                -18.6093393
              ],
              [
                15.2698426,
                -18.609824
              ],
              [
                15.267638,
                -18.6099269
              ],
              [
                15.2657765,
                -18.6099701
              ],
              [
                15.2644864,
                -18.6099753
              ],
              [
                15.2612194,
                -18.6100743
              ],
              [
                15.2399333,
                -18.6106112
              ],
              [
                15.2331598,
                -18.6107899
              ],
              [
                15.1512863,
                -18.612918
              ],
              [
                15.042799,
                -18.6156682
              ],
              [
                14.9993104,
                -18.6167584
              ],
              [
                14.98001,
                -18.6186744
              ],
              [
                14.9574373,
                -18.6209147
              ],
              [
                14.8035115,
                -18.6361139
              ],
              [
                14.6976968,
                -18.6464901
              ],
              [
                14.6976955,
                -18.6465749
              ],
              [
                14.6590248,
                -18.6464861
              ],
              [
                14.6540793,
                -18.6464747
              ],
              [
                14.602311,
                -18.6463557
              ],
              [
                14.5682569,
                -18.6462775
              ],
              [
                14.587284,
                -18.7243218
              ],
              [
                14.5948589,
                -18.755382
              ],
              [
                14.5983979,
                -18.7698699
              ],
              [
                14.6607589,
                -18.8193886
              ],
              [
                14.5605245,
                -18.8865034
              ],
              [
                14.5428913,
                -18.8983117
              ],
              [
                14.5366881,
                -18.9024898
              ],
              [
                14.5268256,
                -18.909061
              ],
              [
                14.5124939,
                -18.9186447
              ],
              [
                14.4991173,
                -18.9275893
              ],
              [
                14.4826092,
                -18.9386271
              ],
              [
                14.4679191,
                -18.9484488
              ],
              [
                14.4554059,
                -18.9568146
              ],
              [
                14.441715,
                -18.9659672
              ],
              [
                14.4268926,
                -18.9758757
              ],
              [
                14.4122534,
                -18.9856611
              ],
              [
                14.3952892,
                -18.997
              ],
              [
                14.3785048,
                -19.0082179
              ],
              [
                14.3630494,
                -19.0185469
              ],
              [
                14.3620551,
                -19.0215549
              ],
              [
                14.3584199,
                -19.0323056
              ],
              [
                14.3581171,
                -19.0332217
              ],
              [
                14.3578743,
                -19.0347799
              ],
              [
                14.3570425,
                -19.0393377
              ],
              [
                14.3565366,
                -19.0420596
              ],
              [
                14.3561647,
                -19.0440604
              ],
              [
                14.3541989,
                -19.0546361
              ],
              [
                14.3533245,
                -19.0596264
              ],
              [
                14.3532235,
                -19.0601893
              ],
              [
                14.3532062,
                -19.0609262
              ],
              [
                14.3531694,
                -19.0619828
              ]
            ]
          ]
        ]
      }
    }
  ]
}