{
"type": "FeatureCollection",
"name": "region_representative_points",
"crs": { "type": "name", "properties": { "name": "urn:ogc:def:crs:OGC:1.3:CRS84" } },
"features": [
{ "type": "Feature", "properties": { "region_id": "ENP1", "region_kind": "survey_stratum", "longitude": 14.587235087694248, "latitude": -19.097490003383058, "purpose": "label_point_only_not_routing_or_ecological_centre" }, "geometry": { "type": "Point", "coordinates": [ 14.587235087694248, -19.097490003383058 ] } },
{ "type": "Feature", "properties": { "region_id": "ENP2", "region_kind": "survey_stratum", "longitude": 14.705438578064824, "latitude": -18.827868362223345, "purpose": "label_point_only_not_routing_or_ecological_centre" }, "geometry": { "type": "Point", "coordinates": [ 14.705438578064824, -18.827868362223345 ] } },
{ "type": "Feature", "properties": { "region_id": "ENP3410", "region_kind": "survey_stratum", "longitude": 14.670995688704679, "latitude": -18.697488243073469, "purpose": "label_point_only_not_routing_or_ecological_centre" }, "geometry": { "type": "Point", "coordinates": [ 14.670995688704679, -18.697488243073469 ] } },
{ "type": "Feature", "properties": { "region_id": "ENP5", "region_kind": "survey_stratum", "longitude": 14.965448884746223, "latitude": -18.757594011923096, "purpose": "label_point_only_not_routing_or_ecological_centre" }, "geometry": { "type": "Point", "coordinates": [ 14.965448884746223, -18.757594011923096 ] } },
{ "type": "Feature", "properties": { "region_id": "ENP6", "region_kind": "survey_stratum", "longitude": 15.219137995013968, "latitude": -18.993943447466439, "purpose": "label_point_only_not_routing_or_ecological_centre" }, "geometry": { "type": "Point", "coordinates": [ 15.219137995013968, -18.993943447466439 ] } },
{ "type": "Feature", "properties": { "region_id": "ENP7", "region_kind": "survey_stratum", "longitude": 15.524587380258295, "latitude": -18.991142363475301, "purpose": "label_point_only_not_routing_or_ecological_centre" }, "geometry": { "type": "Point", "coordinates": [ 15.524587380258295, -18.991142363475301 ] } },
{ "type": "Feature", "properties": { "region_id": "ENP8", "region_kind": "survey_stratum", "longitude": 15.496329126391274, "latitude": -19.168000339820608, "purpose": "label_point_only_not_routing_or_ecological_centre" }, "geometry": { "type": "Point", "coordinates": [ 15.496329126391274, -19.168000339820608 ] } },
{ "type": "Feature", "properties": { "region_id": "ENP9", "region_kind": "survey_stratum", "longitude": 15.565118467180731, "latitude": -18.744152202531492, "purpose": "label_point_only_not_routing_or_ecological_centre" }, "geometry": { "type": "Point", "coordinates": [ 15.565118467180731, -18.744152202531492 ] } },
{ "type": "Feature", "properties": { "region_id": "ENP11", "region_kind": "survey_stratum", "longitude": 15.306693584291502, "latitude": -18.699893546667845, "purpose": "label_point_only_not_routing_or_ecological_centre" }, "geometry": { "type": "Point", "coordinates": [ 15.306693584291502, -18.699893546667845 ] } },
{ "type": "Feature", "properties": { "region_id": "ENP12", "region_kind": "survey_stratum", "longitude": 16.136199536585028, "latitude": -19.11976472998407, "purpose": "label_point_only_not_routing_or_ecological_centre" }, "geometry": { "type": "Point", "coordinates": [ 16.136199536585028, -19.11976472998407 ] } },
{ "type": "Feature", "properties": { "region_id": "ENP13", "region_kind": "survey_stratum", "longitude": 16.478214024872141, "latitude": -19.27960824442146, "purpose": "label_point_only_not_routing_or_ecological_centre" }, "geometry": { "type": "Point", "coordinates": [ 16.478214024872141, -19.27960824442146 ] } },
{ "type": "Feature", "properties": { "region_id": "ENP14", "region_kind": "survey_stratum", "longitude": 16.888073502874214, "latitude": -19.264340257975707, "purpose": "label_point_only_not_routing_or_ecological_centre" }, "geometry": { "type": "Point", "coordinates": [ 16.888073502874214, -19.264340257975707 ] } },
{ "type": "Feature", "properties": { "region_id": "ENP15", "region_kind": "survey_stratum", "longitude": 16.64331846337144, "latitude": -19.085887756140274, "purpose": "label_point_only_not_routing_or_ecological_centre" }, "geometry": { "type": "Point", "coordinates": [ 16.64331846337144, -19.085887756140274 ] } },
{ "type": "Feature", "properties": { "region_id": "ENP16", "region_kind": "survey_stratum", "longitude": 16.874066799866302, "latitude": -18.831960427076616, "purpose": "label_point_only_not_routing_or_ecological_centre" }, "geometry": { "type": "Point", "coordinates": [ 16.874066799866302, -18.831960427076616 ] } },
{ "type": "Feature", "properties": { "region_id": "ENP17", "region_kind": "survey_stratum", "longitude": 16.928524813874734, "latitude": -18.608918438524494, "purpose": "label_point_only_not_routing_or_ecological_centre" }, "geometry": { "type": "Point", "coordinates": [ 16.928524813874734, -18.608918438524494 ] } },
{ "type": "Feature", "properties": { "region_id": "PAN_MAIN", "region_kind": "main_pan", "longitude": 16.283037758645847, "latitude": -18.813693849685471, "purpose": "label_point_only_not_routing_or_ecological_centre" }, "geometry": { "type": "Point", "coordinates": [ 16.283037758645847, -18.813693849685471 ] } },
{ "type": "Feature", "properties": { "region_id": "UNSURVEYED_OTHER", "region_kind": "unsurveyed_residual", "longitude": 15.475020680769761, "latitude": -19.081941599871225, "purpose": "label_point_only_not_routing_or_ecological_centre" }, "geometry": { "type": "Point", "coordinates": [ 15.475020680769761, -19.081941599871225 ] } }
]
}
