{
"type": "FeatureCollection",
"name": "source_strata_normalized",
"crs": { "type": "name", "properties": { "name": "urn:ogc:def:crs:OGC:1.3:CRS84" } },
"features": [
{ "type": "Feature", "properties": { "aed_stratum": 3620, "aed_name": "ENP 1", "aed_area": 1728, "aed_estimate": 405, "region_id": "ENP1" }, "geometry": { "type": "MultiPolygon", "coordinates": [ [ [ [ 14.537897393333333, -18.90739842 ], [ 14.902831193333332, -18.901991993333333 ], [ 14.902831193333332, -19.088513713333334 ], [ 14.81092194, -19.088513713333334 ], [ 14.81092194, -19.17501654 ], [ 14.719012686666666, -19.180422966666669 ], [ 14.71360626, -19.23989366 ], [ 14.637916286666666, -19.23178402 ], [ 14.537897393333333, -19.242596873333333 ], [ 14.537897393333333, -19.277738646666666 ], [ 14.475723486666666, -19.293957926666668 ], [ 14.464910633333332, -19.277738646666666 ], [ 14.443284926666665, -19.25611294 ], [ 14.42165922, -19.2480033 ], [ 14.40543994, -19.22367438 ], [ 14.3567821, -19.083107286666667 ], [ 14.3567821, -19.050668726666668 ], [ 14.359485313333332, -19.02093338 ], [ 14.532490966666666, -18.901991993333333 ], [ 14.537897393333333, -18.90739842 ] ] ] ] } },
{ "type": "Feature", "properties": { "aed_stratum": 3621, "aed_name": "ENP 2", "aed_area": 260, "aed_estimate": 91, "region_id": "ENP2" }, "geometry": { "type": "MultiPolygon", "coordinates": [ [ [ [ 14.537897393333333, -18.901991993333333 ], [ 14.659541993333333, -18.81819238 ], [ 14.6000713, -18.764128113333332 ], [ 14.594664873333333, -18.750612046666667 ], [ 14.764967313333333, -18.75331526 ], [ 14.759560886666666, -18.904695206666666 ], [ 14.537897393333333, -18.901991993333333 ] ] ] ] } },
{ "type": "Feature", "properties": { "aed_stratum": 3622, "aed_name": "ENP 3410", "aed_area": 2396, "aed_estimate": 0, "region_id": "ENP3410" }, "geometry": { "type": "MultiPolygon", "coordinates": [ [ [ [ 14.59196166, -18.75331526 ], [ 14.564929526666665, -18.642483513333332 ], [ 14.670354846666665, -18.645186726666665 ], [ 14.716309473333332, -18.64788994 ], [ 14.767670526666667, -18.642483513333332 ], [ 14.764967313333333, -18.75331526 ], [ 14.594664873333333, -18.747908833333334 ], [ 14.59196166, -18.75331526 ] ] ], [ [ [ 15.048804713333332, -18.89928878 ], [ 15.051507926666666, -19.09392014 ], [ 15.389409593333333, -19.080404073333334 ], [ 15.392112806666667, -19.245300086666667 ], [ 15.316422833333334, -19.245300086666667 ], [ 15.316422833333334, -19.196642246666666 ], [ 15.202887873333333, -19.22367438 ], [ 15.140713966666667, -19.212861526666668 ], [ 15.0866497, -19.202048673333334 ], [ 15.02988222, -19.212861526666668 ], [ 14.91634726, -19.234487233333333 ], [ 14.716309473333332, -19.23178402 ], [ 14.716309473333332, -19.18312618 ], [ 14.813625153333332, -19.177719753333335 ], [ 14.813625153333332, -19.088513713333334 ], [ 14.902831193333332, -19.091216926666668 ], [ 14.905534406666666, -18.89928878 ], [ 14.759560886666666, -18.90739842 ], [ 14.7622641, -18.81819238 ], [ 14.946082606666666, -18.815489166666666 ], [ 14.946082606666666, -18.89928878 ], [ 15.048804713333332, -18.89928878 ] ] ], [ [ [ 15.748936966666667, -19.28044186 ], [ 15.657027713333333, -19.266925793333332 ], [ 15.600260233333334, -19.2480033 ], [ 15.602963446666667, -19.0858105 ], [ 15.659730926666667, -19.088513713333334 ], [ 15.665137353333334, -18.896585566666666 ], [ 15.762453033333333, -18.896585566666666 ], [ 15.762453033333333, -18.856037366666666 ], [ 15.794891593333334, -18.853334153333332 ], [ 15.803001233333333, -19.2885515 ], [ 15.748936966666667, -19.28044186 ] ] ] ] } },
{ "type": "Feature", "properties": { "aed_stratum": 3623, "aed_name": "ENP 5", "aed_area": 1007, "aed_estimate": 84, "region_id": "ENP5" }, "geometry": { "type": "MultiPolygon", "coordinates": [ [ [ [ 14.767670526666667, -18.637077086666665 ], [ 15.032585433333333, -18.61545138 ], [ 15.035288646666666, -18.699250993333333 ], [ 15.1677461, -18.693844566666666 ], [ 15.162339673333333, -18.89928878 ], [ 14.94878582, -18.89928878 ], [ 14.946082606666666, -18.815489166666666 ], [ 14.759560886666666, -18.81819238 ], [ 14.7622641, -18.6397803 ], [ 14.767670526666667, -18.637077086666665 ] ] ] ] } },
{ "type": "Feature", "properties": { "aed_stratum": 3624, "aed_name": "ENP 6", "aed_area": 701, "aed_estimate": 68, "region_id": "ENP6" }, "geometry": { "type": "MultiPolygon", "coordinates": [ [ [ [ 15.389409593333333, -18.89928878 ], [ 15.392112806666667, -19.080404073333334 ], [ 15.051507926666666, -19.088513713333334 ], [ 15.048804713333332, -18.901991993333333 ], [ 15.389409593333333, -18.89928878 ] ] ] ] } },
{ "type": "Feature", "properties": { "aed_stratum": 3625, "aed_name": "ENP 7", "aed_area": 601, "aed_estimate": 160, "region_id": "ENP7" }, "geometry": { "type": "MultiPolygon", "coordinates": [ [ [ [ 15.389409593333333, -19.07770086 ], [ 15.38670638, -18.89928878 ], [ 15.665137353333334, -18.89928878 ], [ 15.657027713333333, -19.083107286666667 ], [ 15.602963446666667, -19.083107286666667 ], [ 15.38670638, -19.07770086 ], [ 15.389409593333333, -19.07770086 ] ] ] ] } },
{ "type": "Feature", "properties": { "aed_stratum": 3626, "aed_name": "ENP 8", "aed_area": 442, "aed_estimate": 0, "region_id": "ENP8" }, "geometry": { "type": "MultiPolygon", "coordinates": [ [ [ [ 15.38670638, -19.0858105 ], [ 15.602963446666667, -19.083107286666667 ], [ 15.600260233333334, -19.25611294 ], [ 15.56511846, -19.242596873333333 ], [ 15.543492753333334, -19.23178402 ], [ 15.521867046666667, -19.23989366 ], [ 15.448880286666666, -19.242596873333333 ], [ 15.421848153333332, -19.242596873333333 ], [ 15.39481602, -19.23989366 ], [ 15.38670638, -19.0858105 ] ] ] ] } },
{ "type": "Feature", "properties": { "aed_stratum": 3635, "aed_name": "ENP 9", "aed_area": 665, "aed_estimate": 271, "region_id": "ENP9" }, "geometry": { "type": "MultiPolygon", "coordinates": [ [ [ [ 15.440770646666667, -18.63167066 ], [ 15.4921317, -18.634373873333335 ], [ 15.56511846, -18.653296366666666 ], [ 15.586744166666666, -18.666812433333334 ], [ 15.616479513333333, -18.67221886 ], [ 15.63810522, -18.67221886 ], [ 15.689466273333334, -18.67221886 ], [ 15.689466273333334, -18.853334153333332 ], [ 15.68676306, -18.853334153333332 ], [ 15.440770646666667, -18.856037366666666 ], [ 15.440770646666667, -18.63167066 ] ] ] ] } },
{ "type": "Feature", "properties": { "aed_stratum": 3673, "aed_name": "ENP 11", "aed_area": 2811, "aed_estimate": 0, "region_id": "ENP11" }, "geometry": { "type": "MultiPolygon", "coordinates": [ [ [ [ 15.032667348888888, -18.618154593333333 ], [ 15.116385046666666, -18.618154593333333 ], [ 15.165042886666667, -18.610044953333333 ], [ 15.210997513333332, -18.61545138 ], [ 15.254248926666666, -18.60734174 ], [ 15.308313193333333, -18.610044953333333 ], [ 15.34615818, -18.612748166666666 ], [ 15.397519233333334, -18.620857806666667 ], [ 15.44347386, -18.62356102 ], [ 15.481318846666667, -18.63167066 ], [ 15.527273473333334, -18.645186726666665 ], [ 15.5732281, -18.653296366666666 ], [ 15.602963446666667, -18.67221886 ], [ 15.635402006666666, -18.669515646666667 ], [ 15.667840566666667, -18.499213206666667 ], [ 16.35175354, -18.50191642 ], [ 16.3841921, -18.504619633333334 ], [ 16.357159966666668, -18.528948553333333 ], [ 16.3030957, -18.553277473333331 ], [ 16.249031433333336, -18.580309606666667 ], [ 16.211186446666666, -18.618154593333333 ], [ 16.15712218, -18.65599958 ], [ 16.070619353333335, -18.715470273333334 ], [ 16.0598065, -18.718173486666668 ], [ 16.040884006666666, -18.69654778 ], [ 16.0598065, -18.69654778 ], [ 16.08413542, -18.68843814 ], [ 16.13279326, -18.645186726666665 ], [ 16.11657398, -18.612748166666666 ], [ 16.057103286666667, -18.64788994 ], [ 16.032774366666668, -18.67221886 ], [ 15.992226166666667, -18.669515646666667 ], [ 15.884097633333333, -18.7614249 ], [ 15.846252646666667, -18.839818086666668 ], [ 15.762453033333333, -18.85063094 ], [ 15.75974982, -18.893882353333332 ], [ 15.665137353333334, -18.89117914 ], [ 15.389409593333333, -18.901991993333333 ], [ 15.15963646, -18.89928878 ], [ 15.15963646, -18.837114873333334 ], [ 15.173152526666666, -18.693844566666666 ], [ 15.035288646666666, -18.70465742 ], [ 15.032667348888888, -18.618154593333333 ] ] ], [ [ [ 15.032585433333333, -18.61545138 ], [ 15.032667348888888, -18.618154593333333 ], [ 15.032585433333333, -18.618154593333333 ], [ 15.032585433333333, -18.61545138 ] ] ] ] } },
{ "type": "Feature", "properties": { "aed_stratum": 3628, "aed_name": "ENP 12", "aed_area": 1489, "aed_estimate": 300, "region_id": "ENP12" }, "geometry": { "type": "MultiPolygon", "coordinates": [ [ [ [ 15.843549433333333, -18.847927726666665 ], [ 15.838143006666668, -18.853334153333332 ], [ 15.838143006666668, -18.912804846666667 ], [ 15.854362286666667, -18.95605626 ], [ 15.884097633333333, -19.031746233333333 ], [ 15.911129766666667, -19.080404073333334 ], [ 15.935458686666667, -19.123655486666667 ], [ 15.959787606666668, -19.123655486666667 ], [ 16.02736794, -19.1263587 ], [ 16.10846434, -19.0858105 ], [ 16.1409029, -19.07770086 ], [ 16.154418966666668, -19.058778366666665 ], [ 16.127386833333333, -19.031746233333333 ], [ 16.135496473333333, -19.01282374 ], [ 16.224702513333334, -19.03715266 ], [ 16.232812153333334, -19.1263587 ], [ 16.24632822, -19.39397682 ], [ 16.192263953333335, -19.372351113333334 ], [ 16.12468362, -19.36153826 ], [ 16.00303902, -19.334506126666668 ], [ 15.943568326666668, -19.33720934 ], [ 15.854362286666667, -19.277738646666666 ], [ 15.80029802, -19.28044186 ], [ 15.79218838, -18.853334153333332 ], [ 15.843549433333333, -18.847927726666665 ] ] ] ] } },
{ "type": "Feature", "properties": { "aed_stratum": 3629, "aed_name": "ENP 13", "aed_area": 1427, "aed_estimate": 65, "region_id": "ENP13" }, "geometry": { "type": "MultiPolygon", "coordinates": [ [ [ [ 16.235623938221863, -19.126342632657781 ], [ 16.232812153333334, -19.1263587 ], [ 16.235515366666668, -19.123655486666667 ], [ 16.235623938221863, -19.126342632657781 ] ] ], [ [ [ 16.235623938221863, -19.126342632657781 ], [ 16.705874486666669, -19.123655486666667 ], [ 16.722093766666667, -19.326396486666667 ], [ 16.519352766666668, -19.3290997 ], [ 16.52205598, -19.43452502 ], [ 16.492320633333335, -19.43452502 ], [ 16.41663066, -19.41830574 ], [ 16.35175354, -19.415602526666667 ], [ 16.305798913333334, -19.404789673333333 ], [ 16.249031433333336, -19.391273606666665 ], [ 16.24632822, -19.391273606666665 ], [ 16.235623938221863, -19.126342632657781 ] ] ] ] } },
{ "type": "Feature", "properties": { "aed_stratum": 3630, "aed_name": "ENP 14", "aed_area": 1145, "aed_estimate": 12, "region_id": "ENP14" }, "geometry": { "type": "MultiPolygon", "coordinates": [ [ [ [ 16.524759193333335, -19.43452502 ], [ 16.519352766666668, -19.334506126666668 ], [ 16.71668734, -19.3290997 ], [ 16.713984126666666, -19.26422258 ], [ 16.865364073333335, -19.25611294 ], [ 17.09784042, -19.0452623 ], [ 17.12757576666667, -19.172313326666668 ], [ 17.108653273333335, -19.204751886666667 ], [ 16.9924151, -19.350725406666665 ], [ 16.705874486666669, -19.48318286 ], [ 16.597745953333334, -19.43452502 ], [ 16.527462406666668, -19.43452502 ], [ 16.524759193333335, -19.43452502 ] ] ] ] } },
{ "type": "Feature", "properties": { "aed_stratum": 3631, "aed_name": "ENP 15", "aed_area": 2038, "aed_estimate": 549, "region_id": "ENP15" }, "geometry": { "type": "MultiPolygon", "coordinates": [ [ [ [ 16.227405726666667, -19.034449446666667 ], [ 16.33553426, -18.977681966666665 ], [ 16.454475646666669, -18.945243406666666 ], [ 16.540978473333332, -18.912804846666667 ], [ 16.622074873333336, -18.9236177 ], [ 16.662623073333336, -18.910101633333333 ], [ 16.686951993333334, -18.942540193333333 ], [ 17.078917926666669, -18.945243406666666 ], [ 17.092433993333334, -19.047965513333335 ], [ 16.86266086, -19.258816153333335 ], [ 16.711280913333333, -19.261519366666668 ], [ 16.711280913333333, -19.120952273333334 ], [ 16.23821858, -19.123655486666667 ], [ 16.224702513333334, -19.031746233333333 ], [ 16.227405726666667, -19.034449446666667 ] ] ] ] } },
{ "type": "Feature", "properties": { "aed_stratum": 3633, "aed_name": "ENP 16", "aed_area": 918, "aed_estimate": 458, "region_id": "ENP16" }, "geometry": { "type": "MultiPolygon", "coordinates": [ [ [ [ 17.027556873333335, -18.718173486666668 ], [ 17.030260086666669, -18.742502406666667 ], [ 17.054589006666667, -18.853334153333332 ], [ 17.078917926666669, -18.945243406666666 ], [ 16.68424878, -18.937133766666665 ], [ 16.678842353333334, -18.888475926666665 ], [ 16.69235842, -18.845224513333335 ], [ 16.705874486666669, -18.81819238 ], [ 16.722093766666667, -18.758721686666668 ], [ 16.719390553333334, -18.718173486666668 ], [ 17.027556873333335, -18.718173486666668 ] ] ] ] } },
{ "type": "Feature", "properties": { "aed_stratum": 3634, "aed_name": "ENP 17", "aed_area": 921, "aed_estimate": 448, "region_id": "ENP17" }, "geometry": { "type": "MultiPolygon", "coordinates": [ [ [ [ 16.705874486666669, -18.499213206666667 ], [ 17.035666513333336, -18.499213206666667 ], [ 17.119466126666669, -18.523542126666666 ], [ 17.13838862, -18.577606393333333 ], [ 17.157311113333336, -18.59112246 ], [ 17.13838862, -18.626264233333334 ], [ 17.027556873333335, -18.626264233333334 ], [ 17.027556873333335, -18.718173486666668 ], [ 16.719390553333334, -18.715470273333334 ], [ 16.705874486666669, -18.499213206666667 ] ] ] ] } }
]
}
